{"type":"Feature","properties":{"source":"swissBOUNDARIES3D (c) swisstopo","crs":"EPSG:2056"},"geometry":{"type":"Polygon","coordinates":[[[2496026.0,1144175.0],[2496093.0,1144513.0],[2495944.0,1144912.0],[2495505.0,1145244.0],[2495190.0,1145599.0],[2495390.0,1146050.0],[2495128.0,1146309.0],[2495170.0,1146707.0],[2495088.0,1146928.0],[2495405.0,1147137.0],[2496970.0,1148658.0],[2498229.0,1151779.0],[2500214.0,1154129.0],[2500648.0,1153759.0],[2501415.0,1154753.0],[2501044.0,1155046.0],[2501675.0,1155695.0],[2498191.0,1159215.0],[2499078.0,1160042.0],[2499447.0,1160693.0],[2500463.0,1161532.0],[2500636.0,1161582.0],[2501116.0,1162028.0],[2501554.0,1162185.0],[2502140.0,1162877.0],[2502456.0,1162884.0],[2503512.0,1163498.0],[2503560.0,1163981.0],[2503864.0,1164119.0],[2504030.0,1164372.0],[2504253.0,1164475.0],[2504322.0,1164598.0],[2504438.0,1164562.0],[2504861.0,1164866.0],[2504828.0,1165009.0],[2505199.0,1165458.0],[2505117.0,1165560.0],[2505468.0,1165750.0],[2505583.0,1165606.0],[2505724.0,1165672.0],[2506158.0,1166163.0],[2506152.0,1166269.0],[2506505.0,1166401.0],[2506446.0,1166494.0],[2506630.0,1166710.0],[2506999.0,1166831.0],[2507290.0,1167045.0],[2507698.0,1167736.0],[2510374.0,1170114.0],[2510433.0,1170326.0],[2510496.0,1170302.0],[2510624.0,1170431.0],[2510618.0,1170511.0],[2510499.0,1170541.0],[2510528.0,1170816.0],[2511294.0,1171355.0],[2511526.0,1171704.0],[2512330.0,1171962.0],[2512565.0,1172116.0],[2512684.0,1172088.0],[2514849.0,1173413.0],[2515003.0,1173385.0],[2516087.0,1173801.0],[2516715.0,1174273.0],[2516928.0,1174316.0],[2517057.0,1174686.0],[2517330.0,1174851.0],[2517554.0,1175222.0],[2517858.0,1175071.0],[2518054.0,1175228.0],[2518438.0,1175325.0],[2518415.0,1175888.0],[2518150.0,1175894.0],[2518398.0,1176056.0],[2518683.0,1176099.0],[2519005.0,1176013.0],[2519460.0,1176119.0],[2519810.0,1176524.0],[2520013.0,1176955.0],[2519957.0,1177194.0],[2519877.0,1177321.0],[2519747.0,1177338.0],[2519743.0,1177439.0],[2520270.0,1178007.0],[2520631.0,1178135.0],[2520708.0,1178271.0],[2520897.0,1178172.0],[2521507.0,1178329.0],[2522527.0,1178644.0],[2522965.0,1178898.0],[2523665.0,1179551.0],[2523554.0,1179593.0],[2523600.0,1179988.0],[2524407.0,1180710.0],[2524666.0,1180813.0],[2524627.0,1181304.0],[2525156.0,1182425.0],[2523370.0,1183861.0],[2523100.0,1185073.0],[2523852.0,1185448.0],[2523763.0,1186356.0],[2524054.0,1187324.0],[2525367.0,1189374.0],[2525770.0,1193711.0],[2525275.0,1194877.0],[2524055.0,1196757.0],[2523625.0,1197216.0],[2523392.0,1198002.0],[2524452.0,1198588.0],[2524993.0,1199100.0],[2525518.0,1199660.0],[2525670.0,1200026.0],[2526226.0,1200688.0],[2526868.0,1201638.0],[2528267.0,1202973.0],[2528933.0,1202048.0],[2530012.0,1202623.0],[2531415.0,1202883.0],[2534156.0,1203848.0],[2535684.0,1204875.0],[2536205.0,1204951.0],[2536207.0,1204864.0],[2536467.0,1204874.0],[2536567.0,1204782.0],[2537002.0,1204740.0],[2537575.0,1204837.0],[2538310.0,1205354.0],[2538769.0,1205548.0],[2539290.0,1206061.0],[2539730.0,1206806.0],[2540321.0,1208222.0],[2540750.0,1208773.0],[2542129.0,1209645.0],[2542787.0,1209877.0],[2543599.0,1209853.0],[2544311.0,1210627.0],[2544541.0,1210697.0],[2544748.0,1211036.0],[2545333.0,1211380.0],[2545350.0,1211484.0],[2544728.0,1211713.0],[2544553.0,1212152.0],[2544451.0,1212118.0],[2544215.0,1212275.0],[2544026.0,1212217.0],[2543915.0,1212300.0],[2543852.0,1212517.0],[2543606.0,1212773.0],[2543524.0,1212657.0],[2543248.0,1213122.0],[2543394.0,1213372.0],[2543984.0,1213497.0],[2544152.0,1213866.0],[2544375.0,1213948.0],[2544299.0,1214192.0],[2544479.0,1214531.0],[2544177.0,1214657.0],[2544116.0,1214833.0],[2544511.0,1214942.0],[2544584.0,1215095.0],[2544693.0,1215076.0],[2544982.0,1215320.0],[2545061.0,1215521.0],[2545641.0,1215645.0],[2545884.0,1215906.0],[2546346.0,1215627.0],[2547075.0,1215783.0],[2547304.0,1215976.0],[2547473.0,1216545.0],[2547451.0,1216751.0],[2547080.0,1217259.0],[2546971.0,1217684.0],[2547015.0,1217862.0],[2547494.0,1217898.0],[2547894.0,1218407.0],[2548860.0,1219042.0],[2549307.0,1219153.0],[2549715.0,1219144.0],[2549976.0,1219409.0],[2550915.0,1219736.0],[2551310.0,1219996.0],[2551567.0,1219979.0],[2552006.0,1220164.0],[2552164.0,1220681.0],[2552744.0,1220737.0],[2553035.0,1221190.0],[2553482.0,1221477.0],[2553712.0,1221905.0],[2553866.0,1221870.0],[2554546.0,1222286.0],[2554631.0,1222721.0],[2555354.0,1222998.0],[2555480.0,1223290.0],[2555996.0,1223871.0],[2556006.0,1223989.0],[2555633.0,1224143.0],[2555247.0,1224048.0],[2554950.0,1224151.0],[2554688.0,1224540.0],[2554697.0,1224669.0],[2556444.0,1225657.0],[2556696.0,1226202.0],[2557025.0,1226143.0],[2557196.0,1226194.0],[2557214.0,1226826.0],[2557572.0,1227374.0],[2557725.0,1227885.0],[2557907.0,1227960.0],[2558123.0,1228226.0],[2558383.0,1228343.0],[2558589.0,1228616.0],[2559738.0,1229443.0],[2559955.0,1229831.0],[2560436.0,1229937.0],[2561008.0,1230258.0],[2561276.0,1230655.0],[2561324.0,1230986.0],[2561676.0,1231197.0],[2562144.0,1231199.0],[2562303.0,1231299.0],[2562451.0,1231624.0],[2562482.0,1232007.0],[2562883.0,1232166.0],[2563134.0,1232430.0],[2563434.0,1232578.0],[2563168.0,1233055.0],[2562810.0,1233428.0],[2562756.0,1233809.0],[2562983.0,1234067.0],[2563139.0,1234629.0],[2563030.0,1235132.0],[2563176.0,1235559.0],[2562681.0,1236538.0],[2562672.0,1236822.0],[2562346.0,1237250.0],[2562356.0,1237431.0],[2562914.0,1237945.0],[2563106.0,1238015.0],[2563525.0,1238048.0],[2563963.0,1237945.0],[2564436.0,1238084.0],[2564830.0,1237930.0],[2565017.0,1238129.0],[2565053.0,1238488.0],[2565237.0,1238498.0],[2565478.0,1238373.0],[2566013.0,1238528.0],[2566541.0,1238417.0],[2567108.0,1239058.0],[2567399.0,1238993.0],[2567535.0,1239141.0],[2567663.0,1239777.0],[2567847.0,1239905.0],[2568027.0,1240358.0],[2568050.0,1240572.0],[2567843.0,1241090.0],[2567542.0,1241138.0],[2567597.0,1241607.0],[2568819.0,1241782.0],[2569168.0,1241865.0],[2569159.0,1241923.0],[2569403.0,1242018.0],[2570293.0,1241811.0],[2571153.0,1242686.0],[2570855.0,1242766.0],[2570904.0,1242841.0],[2570850.0,1242942.0],[2571023.0,1243042.0],[2570959.0,1243117.0],[2571015.0,1243167.0],[2571371.0,1243278.0],[2571569.0,1243763.0],[2571045.0,1244130.0],[2570625.0,1244168.0],[2570674.0,1244416.0],[2570849.0,1244594.0],[2570637.0,1245694.0],[2570124.0,1246012.0],[2569498.0,1245913.0],[2569444.0,1246616.0],[2569089.0,1246557.0],[2568391.0,1246696.0],[2568252.0,1246810.0],[2568245.0,1246951.0],[2568048.0,1246985.0],[2567861.0,1246821.0],[2567791.0,1246982.0],[2567428.0,1246454.0],[2566593.0,1245958.0],[2565679.0,1245969.0],[2564944.0,1245582.0],[2564641.0,1245681.0],[2564637.0,1245615.0],[2564287.0,1245486.0],[2564156.0,1245604.0],[2563919.0,1245494.0],[2563266.0,1245470.0],[2563245.0,1245574.0],[2562814.0,1245499.0],[2562540.0,1245322.0],[2561961.0,1245312.0],[2561810.0,1245413.0],[2561125.0,1245054.0],[2560788.0,1245070.0],[2560597.0,1245158.0],[2560467.0,1245329.0],[2559518.0,1245552.0],[2559280.0,1245348.0],[2558980.0,1245456.0],[2558910.0,1245220.0],[2558668.0,1245146.0],[2558319.0,1244863.0],[2558019.0,1244767.0],[2557739.0,1244788.0],[2557749.0,1245366.0],[2557990.0,1245745.0],[2558176.0,1246436.0],[2558080.0,1247041.0],[2558454.0,1247442.0],[2559009.0,1247816.0],[2558956.0,1248018.0],[2559713.0,1248104.0],[2559722.0,1248198.0],[2560241.0,1248508.0],[2560351.0,1248718.0],[2560379.0,1248855.0],[2560167.0,1249111.0],[2560210.0,1249350.0],[2560040.0,1249610.0],[2560507.0,1249725.0],[2560513.0,1249945.0],[2560684.0,1250394.0],[2560344.0,1250551.0],[2560832.0,1250776.0],[2560901.0,1250603.0],[2561165.0,1250679.0],[2562246.0,1250706.0],[2562487.0,1251774.0],[2562406.0,1253734.0],[2563513.0,1253943.0],[2563709.0,1253780.0],[2564174.0,1253998.0],[2564369.0,1254203.0],[2564677.0,1255253.0],[2564914.0,1255259.0],[2565485.0,1255484.0],[2565717.0,1255367.0],[2566179.0,1255341.0],[2566609.0,1255524.0],[2567087.0,1256023.0],[2567032.0,1256225.0],[2566738.0,1256277.0],[2566767.0,1256657.0],[2567024.0,1256886.0],[2566914.0,1257225.0],[2566967.0,1257473.0],[2566305.0,1257388.0],[2566240.0,1257523.0],[2566405.0,1257914.0],[2566052.0,1258135.0],[2565914.0,1258494.0],[2566079.0,1259015.0],[2566087.0,1259668.0],[2565872.0,1260198.0],[2565923.0,1260252.0],[2565639.0,1260422.0],[2565664.0,1260522.0],[2565894.0,1260386.0],[2566065.0,1260553.0],[2566906.0,1260967.0],[2566980.0,1261089.0],[2568574.0,1261608.0],[2568832.0,1261587.0],[2569035.0,1261256.0],[2569144.0,1261280.0],[2569528.0,1261016.0],[2569712.0,1261017.0],[2569733.0,1260829.0],[2570306.0,1260930.0],[2570899.0,1260556.0],[2571527.0,1260584.0],[2572377.0,1260245.0],[2572412.0,1259952.0],[2572585.0,1259778.0],[2573075.0,1259946.0],[2574049.0,1260578.0],[2574486.0,1260451.0],[2575427.0,1260535.0],[2575666.0,1260666.0],[2576597.0,1261505.0],[2576767.0,1261401.0],[2577440.0,1261269.0],[2578284.0,1260769.0],[2578772.0,1260191.0],[2579174.0,1259953.0],[2579460.0,1259963.0],[2579560.0,1259884.0],[2579990.0,1259923.0],[2580892.0,1260078.0],[2582091.0,1260418.0],[2582105.0,1260262.0],[2582243.0,1260098.0],[2581328.0,1259780.0],[2581290.0,1259518.0],[2581029.0,1259113.0],[2580856.0,1258527.0],[2580313.0,1257509.0],[2580433.0,1257223.0],[2580417.0,1256702.0],[2580290.0,1256552.0],[2580373.0,1256452.0],[2579754.0,1254723.0],[2580161.0,1254718.0],[2581435.0,1254275.0],[2581630.0,1254097.0],[2581681.0,1253876.0],[2582421.0,1253891.0],[2582503.0,1253810.0],[2583544.0,1254220.0],[2583729.0,1254359.0],[2584190.0,1254366.0],[2584523.0,1254224.0],[2584931.0,1253630.0],[2584829.0,1253329.0],[2584941.0,1253099.0],[2585302.0,1253020.0],[2585450.0,1252877.0],[2585488.0,1252393.0],[2585420.0,1252267.0],[2585506.0,1252188.0],[2585723.0,1252307.0],[2585797.0,1252481.0],[2586142.0,1252637.0],[2587255.0,1252925.0],[2587876.0,1253533.0],[2588037.0,1253573.0],[2588177.0,1253791.0],[2588557.0,1253829.0],[2588988.0,1253629.0],[2589223.0,1253885.0],[2589583.0,1253976.0],[2589724.0,1254215.0],[2590065.0,1254253.0],[2590481.0,1254141.0],[2590769.0,1254227.0],[2591312.0,1254215.0],[2591830.0,1254561.0],[2592018.0,1254479.0],[2592485.0,1254486.0],[2592646.0,1254233.0],[2592920.0,1254088.0],[2592925.0,1253932.0],[2593676.0,1253685.0],[2593956.0,1253749.0],[2594458.0,1253656.0],[2594691.0,1253732.0],[2594897.0,1253636.0],[2595118.0,1253673.0],[2595126.0,1253612.0],[2595664.0,1253463.0],[2595736.0,1253585.0],[2595999.0,1253453.0],[2596628.0,1253820.0],[2597317.0,1253855.0],[2597329.0,1254210.0],[2597865.0,1254538.0],[2598234.0,1254658.0],[2598637.0,1254976.0],[2598932.0,1255459.0],[2598778.0,1255548.0],[2599259.0,1255900.0],[2599181.0,1256280.0],[2599352.0,1256524.0],[2599548.0,1256497.0],[2600539.0,1256800.0],[2600497.0,1256845.0],[2600873.0,1257417.0],[2601297.0,1257770.0],[2601291.0,1258068.0],[2600871.0,1258285.0],[2600738.0,1258113.0],[2600376.0,1258639.0],[2600295.0,1258674.0],[2600225.0,1258593.0],[2599819.0,1258877.0],[2599511.0,1258916.0],[2599305.0,1259131.0],[2599031.0,1258947.0],[2598658.0,1258845.0],[2598771.0,1259240.0],[2599030.0,1259745.0],[2599275.0,1260036.0],[2599332.0,1260314.0],[2599587.0,1260713.0],[2599726.0,1260817.0],[2600186.0,1260484.0],[2600564.0,1260345.0],[2600920.0,1259951.0],[2601241.0,1259859.0],[2601341.0,1259750.0],[2601791.0,1259811.0],[2602070.0,1259333.0],[2602517.0,1258847.0],[2602899.0,1258813.0],[2603668.0,1259029.0],[2603994.0,1259324.0],[2604158.0,1259741.0],[2604482.0,1259799.0],[2604621.0,1260031.0],[2604810.0,1260004.0],[2604711.0,1260309.0],[2605459.0,1260700.0],[2605285.0,1261291.0],[2605412.0,1261323.0],[2605401.0,1261696.0],[2605220.0,1262232.0],[2605068.0,1262291.0],[2604555.0,1262840.0],[2604463.0,1263392.0],[2604605.0,1263317.0],[2604795.0,1262687.0],[2605035.0,1262660.0],[2605475.0,1262923.0],[2605939.0,1262952.0],[2606061.0,1262678.0],[2606186.0,1262779.0],[2606295.0,1262610.0],[2606411.0,1262736.0],[2606390.0,1263107.0],[2606701.0,1263450.0],[2606974.0,1264163.0],[2606863.0,1264443.0],[2606639.0,1264687.0],[2606460.0,1264574.0],[2606079.0,1264891.0],[2605432.0,1264254.0],[2605200.0,1264157.0],[2605006.0,1264257.0],[2604796.0,1264188.0],[2604662.0,1264380.0],[2604731.0,1264607.0],[2604474.0,1265049.0],[2604560.0,1265490.0],[2604643.0,1265503.0],[2605032.0,1265965.0],[2605324.0,1266127.0],[2605448.0,1265979.0],[2605883.0,1266080.0],[2606677.0,1266900.0],[2607369.0,1267198.0],[2607592.0,1267481.0],[2607658.0,1267401.0],[2608146.0,1267871.0],[2608931.0,1268265.0],[2609084.0,1268750.0],[2608867.0,1268971.0],[2608900.0,1269091.0],[2609542.0,1269510.0],[2609621.0,1269671.0],[2610280.0,1269502.0],[2610551.0,1269561.0],[2610988.0,1269435.0],[2611066.0,1270388.0],[2611315.0,1271034.0],[2612024.0,1270785.0],[2612503.0,1270484.0],[2612446.0,1270084.0],[2612543.0,1269923.0],[2612510.0,1269700.0],[2613136.0,1269733.0],[2613582.0,1269590.0],[2614250.0,1270092.0],[2615120.0,1271095.0],[2615392.0,1271204.0],[2615281.0,1271521.0],[2615573.0,1271829.0],[2616280.0,1271657.0],[2617203.0,1271276.0],[2617793.0,1271282.0],[2617914.0,1271542.0],[2618381.0,1272008.0],[2618855.0,1272048.0],[2619191.0,1272264.0],[2618918.0,1271907.0],[2618429.0,1271733.0],[2618125.0,1271312.0],[2617537.0,1270757.0],[2617562.0,1270532.0],[2618224.0,1270249.0],[2618304.0,1269668.0],[2618452.0,1269580.0],[2618439.0,1269274.0],[2618834.0,1269111.0],[2618890.0,1268997.0],[2618611.0,1268352.0],[2618422.0,1268664.0],[2618427.0,1268979.0],[2618097.0,1268783.0],[2617800.0,1268329.0],[2617961.0,1268275.0],[2617964.0,1268143.0],[2617598.0,1268139.0],[2617591.0,1268330.0],[2617466.0,1268371.0],[2616979.0,1268324.0],[2616567.0,1268220.0],[2616372.0,1267975.0],[2616250.0,1267985.0],[2615780.0,1267713.0],[2615461.0,1267862.0],[2615251.0,1267859.0],[2614864.0,1268153.0],[2614700.0,1267851.0],[2614951.0,1267715.0],[2615211.0,1267442.0],[2615908.0,1266370.0],[2616748.0,1266060.0],[2617012.0,1265365.0],[2617325.0,1265008.0],[2618098.0,1264715.0],[2619117.0,1264661.0],[2619529.0,1264754.0],[2621125.0,1265702.0],[2623610.0,1266057.0],[2624074.0,1266466.0],[2625207.0,1266901.0],[2625881.0,1266989.0],[2626875.0,1267468.0],[2627300.0,1268170.0],[2628057.0,1268787.0],[2628263.0,1269934.0],[2628555.0,1270684.0],[2628666.0,1270810.0],[2628921.0,1270881.0],[2629607.0,1270752.0],[2629776.0,1270649.0],[2630031.0,1270312.0],[2630393.0,1270239.0],[2630760.0,1270297.0],[2631264.0,1270514.0],[2631738.0,1270840.0],[2632279.0,1270978.0],[2633555.0,1271000.0],[2634110.0,1270847.0],[2634944.0,1270116.0],[2635516.0,1269071.0],[2635581.0,1268540.0],[2635313.0,1268030.0],[2635269.0,1267788.0],[2635426.0,1267133.0],[2635631.0,1266780.0],[2636129.0,1266404.0],[2637182.0,1266362.0],[2638057.0,1266029.0],[2638266.0,1266071.0],[2638447.0,1266292.0],[2638690.0,1267240.0],[2638915.0,1267469.0],[2639233.0,1267621.0],[2639976.0,1267383.0],[2640491.0,1267313.0],[2642307.0,1267440.0],[2642795.0,1267295.0],[2643382.0,1266880.0],[2643865.0,1266788.0],[2644310.0,1266968.0],[2645249.0,1267148.0],[2645816.0,1267399.0],[2646568.0,1268030.0],[2646717.0,1268277.0],[2647010.0,1268249.0],[2647309.0,1268387.0],[2647654.0,1268277.0],[2648374.0,1267680.0],[2648974.0,1267647.0],[2649519.0,1267971.0],[2649750.0,1268247.0],[2649913.0,1268770.0],[2649998.0,1269724.0],[2650196.0,1270095.0],[2650493.0,1270422.0],[2650948.0,1270575.0],[2651705.0,1270517.0],[2652454.0,1270569.0],[2652615.0,1270769.0],[2652622.0,1271281.0],[2653439.0,1271924.0],[2653707.0,1271928.0],[2654281.0,1271682.0],[2654628.0,1271752.0],[2655391.0,1272624.0],[2656155.0,1273029.0],[2656698.0,1274104.0],[2657010.0,1274469.0],[2657325.0,1274683.0],[2657658.0,1274769.0],[2658228.0,1274689.0],[2658723.0,1274393.0],[2658916.0,1273965.0],[2659060.0,1273219.0],[2659247.0,1273004.0],[2659552.0,1273157.0],[2660097.0,1273863.0],[2660621.0,1273846.0],[2661550.0,1274167.0],[2661801.0,1274096.0],[2661973.0,1273633.0],[2662129.0,1273508.0],[2663206.0,1273786.0],[2663735.0,1273699.0],[2664202.0,1273483.0],[2664603.0,1273076.0],[2664435.0,1271893.0],[2664624.0,1271303.0],[2665026.0,1270924.0],[2665617.0,1270660.0],[2666458.0,1269635.0],[2667046.0,1269296.0],[2669236.0,1269231.0],[2669678.0,1269094.0],[2670324.0,1269020.0],[2671031.0,1268761.0],[2671250.0,1268925.0],[2671583.0,1269631.0],[2671920.0,1269964.0],[2672120.0,1270047.0],[2672655.0,1269891.0],[2673457.0,1269387.0],[2674637.0,1268908.0],[2675232.0,1268985.0],[2676568.0,1269578.0],[2677158.0,1269556.0],[2677554.0,1269764.0],[2678098.0,1270195.0],[2678749.0,1270131.0],[2679453.0,1270572.0],[2678988.0,1271321.0],[2678582.0,1271214.0],[2678416.0,1271022.0],[2677351.0,1270901.0],[2677191.0,1271317.0],[2676869.0,1271354.0],[2676915.0,1271831.0],[2676761.0,1272209.0],[2676593.0,1272351.0],[2676559.0,1272900.0],[2677082.0,1272901.0],[2677449.0,1273083.0],[2677416.0,1273253.0],[2677560.0,1273260.0],[2677658.0,1273390.0],[2677575.0,1273607.0],[2677950.0,1273543.0],[2678159.0,1273884.0],[2678144.0,1274171.0],[2678234.0,1274356.0],[2678543.0,1274189.0],[2678641.0,1274309.0],[2678826.0,1274267.0],[2678930.0,1274348.0],[2679296.0,1274284.0],[2680027.0,1274609.0],[2680421.0,1274642.0],[2680335.0,1274723.0],[2680465.0,1274758.0],[2680343.0,1275341.0],[2680922.0,1275301.0],[2680915.0,1275431.0],[2680744.0,1275512.0],[2680797.0,1275678.0],[2680836.0,1275623.0],[2680933.0,1275717.0],[2680899.0,1275838.0],[2680969.0,1275871.0],[2680895.0,1276060.0],[2681014.0,1276266.0],[2680946.0,1276458.0],[2681329.0,1276522.0],[2681698.0,1276237.0],[2682108.0,1276271.0],[2682700.0,1276168.0],[2682689.0,1275649.0],[2683005.0,1275737.0],[2683114.0,1275528.0],[2683579.0,1275557.0],[2684135.0,1275465.0],[2684290.0,1275097.0],[2684397.0,1275063.0],[2684525.0,1274608.0],[2685006.0,1274671.0],[2685108.0,1274456.0],[2685081.0,1274341.0],[2685177.0,1274313.0],[2685156.0,1274148.0],[2685404.0,1274094.0],[2685274.0,1273969.0],[2684796.0,1273851.0],[2684804.0,1273433.0],[2684454.0,1272895.0],[2684498.0,1272783.0],[2684835.0,1272438.0],[2685172.0,1272560.0],[2685457.0,1272265.0],[2685605.0,1272413.0],[2686035.0,1272344.0],[2686160.0,1272751.0],[2686418.0,1272972.0],[2686599.0,1272916.0],[2686783.0,1273469.0],[2687009.0,1273411.0],[2687551.0,1273982.0],[2687693.0,1274299.0],[2687673.0,1274690.0],[2687273.0,1275436.0],[2687072.0,1276130.0],[2686920.0,1277307.0],[2686971.0,1277599.0],[2687413.0,1277938.0],[2687638.0,1278575.0],[2687892.0,1278605.0],[2688250.0,1278245.0],[2688315.0,1277741.0],[2688081.0,1277459.0],[2687584.0,1277385.0],[2687530.0,1277113.0],[2687807.0,1276921.0],[2688446.0,1277002.0],[2688795.0,1277156.0],[2689026.0,1277368.0],[2689415.0,1278278.0],[2689422.0,1278604.0],[2689301.0,1278835.0],[2688713.0,1279400.0],[2688330.0,1279652.0],[2688203.0,1279567.0],[2687841.0,1279933.0],[2687663.0,1280517.0],[2687717.0,1280821.0],[2687068.0,1280875.0],[2686727.0,1280211.0],[2686581.0,1280290.0],[2686274.0,1280144.0],[2685561.0,1279607.0],[2685271.0,1279744.0],[2685048.0,1279972.0],[2684919.0,1279895.0],[2684690.0,1280060.0],[2684585.0,1280010.0],[2684482.0,1280322.0],[2684499.0,1280539.0],[2684287.0,1280568.0],[2683986.0,1280446.0],[2683801.0,1280459.0],[2683445.0,1280233.0],[2683235.0,1280239.0],[2682897.0,1279991.0],[2682723.0,1279962.0],[2682645.0,1279704.0],[2682862.0,1279043.0],[2682319.0,1279320.0],[2682237.0,1279738.0],[2681752.0,1279435.0],[2681837.0,1279165.0],[2681990.0,1279058.0],[2681925.0,1278832.0],[2682346.0,1278246.0],[2682139.0,1277805.0],[2681478.0,1277696.0],[2680749.0,1277980.0],[2680427.0,1277886.0],[2679715.0,1277939.0],[2679764.0,1277823.0],[2679248.0,1277898.0],[2679332.0,1277357.0],[2679185.0,1277358.0],[2679131.0,1277452.0],[2678974.0,1277404.0],[2678807.0,1277684.0],[2678641.0,1277553.0],[2678461.0,1277571.0],[2678358.0,1277738.0],[2678411.0,1277942.0],[2678273.0,1278140.0],[2677973.0,1278232.0],[2677771.0,1278183.0],[2677724.0,1278026.0],[2677789.0,1277882.0],[2678054.0,1277774.0],[2678078.0,1277628.0],[2677580.0,1277365.0],[2677648.0,1277232.0],[2677890.0,1277219.0],[2678110.0,1277085.0],[2677817.0,1277029.0],[2677771.0,1276929.0],[2677506.0,1277027.0],[2677286.0,1277271.0],[2677021.0,1278038.0],[2677267.0,1278882.0],[2677177.0,1279016.0],[2677057.0,1278846.0],[2677004.0,1278910.0],[2676531.0,1278506.0],[2676256.0,1278729.0],[2676021.0,1278752.0],[2675616.0,1278620.0],[2675123.0,1279004.0],[2674972.0,1279003.0],[2674618.0,1279527.0],[2673984.0,1280045.0],[2673126.0,1279975.0],[2672619.0,1280842.0],[2672833.0,1281332.0],[2673408.0,1281475.0],[2673565.0,1281810.0],[2673746.0,1281933.0],[2673546.0,1282410.0],[2673070.0,1283096.0],[2672651.0,1283220.0],[2672515.0,1283493.0],[2673434.0,1284855.0],[2673662.0,1284783.0],[2674049.0,1285035.0],[2674106.0,1284987.0],[2674923.0,1285787.0],[2675265.0,1285736.0],[2675283.0,1285814.0],[2675152.0,1285940.0],[2675534.0,1286315.0],[2676255.0,1286256.0],[2676223.0,1286773.0],[2676407.0,1287115.0],[2676069.0,1287186.0],[2675855.0,1287925.0],[2675917.0,1288220.0],[2676293.0,1288518.0],[2676293.0,1289104.0],[2676380.0,1289314.0],[2677054.0,1289699.0],[2677265.0,1290363.0],[2677511.0,1290830.0],[2678183.0,1291382.0],[2678370.0,1291676.0],[2678736.0,1291933.0],[2678886.0,1291764.0],[2679299.0,1291683.0],[2679437.0,1291858.0],[2679731.0,1291994.0],[2679817.0,1291942.0],[2680208.0,1292066.0],[2680327.0,1292286.0],[2681078.0,1291666.0],[2681259.0,1292162.0],[2681536.0,1292505.0],[2681985.0,1292513.0],[2682221.0,1292712.0],[2683507.0,1293269.0],[2683837.0,1293144.0],[2684189.0,1292822.0],[2684293.0,1292828.0],[2684265.0,1292530.0],[2684528.0,1292536.0],[2685341.0,1292965.0],[2685118.0,1293543.0],[2685151.0,1293847.0],[2684301.0,1294148.0],[2684229.0,1294086.0],[2684175.0,1294164.0],[2684238.0,1295409.0],[2684290.0,1295589.0],[2684601.0,1295934.0],[2684779.0,1295690.0],[2684985.0,1295674.0],[2685205.0,1295194.0],[2685168.0,1294957.0],[2685504.0,1295019.0],[2686088.0,1295310.0],[2686478.0,1294877.0],[2686875.0,1295295.0],[2687070.0,1295365.0],[2687863.0,1295252.0],[2688052.0,1295179.0],[2688407.0,1294863.0],[2688359.0,1294608.0],[2688678.0,1294482.0],[2688565.0,1293822.0],[2688450.0,1293689.0],[2688213.0,1293617.0],[2688168.0,1293263.0],[2688366.0,1292838.0],[2688425.0,1292849.0],[2688454.0,1292619.0],[2688799.0,1292528.0],[2688516.0,1291693.0],[2688521.0,1291454.0],[2688947.0,1291042.0],[2689154.0,1290545.0],[2689453.0,1290415.0],[2690110.0,1291110.0],[2690246.0,1291208.0],[2690403.0,1291110.0],[2690630.0,1291409.0],[2690461.0,1291580.0],[2690757.0,1291790.0],[2691024.0,1292131.0],[2690884.0,1292234.0],[2690659.0,1292199.0],[2690769.0,1293228.0],[2690438.0,1293659.0],[2690453.0,1294048.0],[2690535.0,1294494.0],[2690683.0,1294527.0],[2690729.0,1294914.0],[2691269.0,1295142.0],[2691535.0,1294688.0],[2691516.0,1294430.0],[2691326.0,1294176.0],[2691693.0,1294184.0],[2691916.0,1294031.0],[2692094.0,1293738.0],[2692360.0,1293730.0],[2692747.0,1293533.0],[2692906.0,1293649.0],[2693104.0,1293632.0],[2693033.0,1293482.0],[2693209.0,1293311.0],[2693165.0,1293225.0],[2693286.0,1292956.0],[2693284.0,1292601.0],[2693696.0,1292187.0],[2693324.0,1291856.0],[2693702.0,1290899.0],[2693656.0,1290712.0],[2693729.0,1290501.0],[2694216.0,1290214.0],[2694274.0,1290338.0],[2694380.0,1290320.0],[2694507.0,1290652.0],[2694681.0,1290795.0],[2694691.0,1290717.0],[2695091.0,1291115.0],[2695283.0,1291058.0],[2695618.0,1291314.0],[2696171.0,1291067.0],[2696235.0,1291171.0],[2696339.0,1291106.0],[2696311.0,1291050.0],[2696617.0,1290982.0],[2696883.0,1290691.0],[2696748.0,1290505.0],[2697672.0,1289856.0],[2697701.0,1289434.0],[2697562.0,1289246.0],[2696701.0,1289190.0],[2696594.0,1289066.0],[2696370.0,1289130.0],[2696223.0,1288940.0],[2696125.0,1288609.0],[2695707.0,1288334.0],[2695463.0,1287390.0],[2695988.0,1286452.0],[2696505.0,1286422.0],[2696497.0,1286296.0],[2697125.0,1286124.0],[2697375.0,1285886.0],[2697075.0,1285373.0],[2696760.0,1284109.0],[2696676.0,1283682.0],[2696797.0,1283255.0],[2697303.0,1283267.0],[2697836.0,1283103.0],[2698530.0,1283064.0],[2699037.0,1282916.0],[2699780.0,1282519.0],[2700306.0,1281989.0],[2701357.0,1281417.0],[2701671.0,1281349.0],[2701937.0,1281404.0],[2701738.0,1281931.0],[2701971.0,1282824.0],[2702209.0,1283246.0],[2702664.0,1283224.0],[2702958.0,1283426.0],[2702668.0,1283772.0],[2702011.0,1283838.0],[2702080.0,1284032.0],[2702000.0,1284465.0],[2701725.0,1284615.0],[2701481.0,1284725.0],[2701170.0,1284648.0],[2699872.0,1284873.0],[2699892.0,1285131.0],[2700027.0,1285234.0],[2700020.0,1285447.0],[2700124.0,1285587.0],[2699929.0,1285784.0],[2699977.0,1285896.0],[2699901.0,1285894.0],[2699881.0,1286164.0],[2699909.0,1286237.0],[2700064.0,1286143.0],[2700258.0,1286239.0],[2700446.0,1286441.0],[2700365.0,1286647.0],[2700701.0,1286535.0],[2700931.0,1286902.0],[2700908.0,1287038.0],[2700996.0,1287172.0],[2701130.0,1287062.0],[2701285.0,1287224.0],[2701436.0,1287170.0],[2701516.0,1287343.0],[2702073.0,1287165.0],[2701861.0,1287988.0],[2702101.0,1288075.0],[2702074.0,1288167.0],[2702461.0,1288243.0],[2702506.0,1288415.0],[2702612.0,1288416.0],[2702766.0,1287633.0],[2703041.0,1287550.0],[2702946.0,1287473.0],[2702946.0,1287302.0],[2702558.0,1287038.0],[2702499.0,1286884.0],[2703093.0,1286810.0],[2703542.0,1286138.0],[2704054.0,1286265.0],[2704121.0,1286172.0],[2703591.0,1285597.0],[2703925.0,1285535.0],[2703947.0,1285402.0],[2704080.0,1285408.0],[2704421.0,1285511.0],[2704678.0,1285814.0],[2704715.0,1285730.0],[2705402.0,1285560.0],[2705598.0,1285452.0],[2705634.0,1285011.0],[2705807.0,1284590.0],[2706181.0,1284750.0],[2706758.0,1284692.0],[2707173.0,1284849.0],[2707637.0,1284702.0],[2707412.0,1284452.0],[2707907.0,1283903.0],[2707805.0,1283638.0],[2707707.0,1283579.0],[2707532.0,1283515.0],[2707436.0,1283583.0],[2707206.0,1283568.0],[2706950.0,1283391.0],[2706990.0,1283649.0],[2707092.0,1283657.0],[2707169.0,1283838.0],[2706934.0,1284061.0],[2706743.0,1283816.0],[2706705.0,1284027.0],[2706547.0,1284089.0],[2706307.0,1283895.0],[2706058.0,1283955.0],[2706010.0,1283625.0],[2706305.0,1283612.0],[2706532.0,1283411.0],[2706397.0,1283101.0],[2706437.0,1283014.0],[2706220.0,1282870.0],[2706174.0,1282652.0],[2706049.0,1282617.0],[2706014.0,1282287.0],[2706097.0,1282272.0],[2706018.0,1282125.0],[2706772.0,1282043.0],[2707330.0,1281561.0],[2707546.0,1281099.0],[2707788.0,1280859.0],[2707983.0,1279856.0],[2707936.0,1279244.0],[2708233.0,1279255.0],[2708551.0,1279143.0],[2709335.0,1278534.0],[2709931.0,1278568.0],[2710312.0,1278799.0],[2711405.0,1279110.0],[2711778.0,1279340.0],[2712900.0,1279485.0],[2713234.0,1279849.0],[2713559.0,1279959.0],[2713953.0,1280252.0],[2714390.0,1280401.0],[2714946.0,1280794.0],[2715376.0,1280946.0],[2715764.0,1281457.0],[2716490.0,1281661.0],[2717447.0,1282158.0],[2718344.0,1282821.0],[2718980.0,1283005.0],[2719378.0,1282975.0],[2720884.0,1282577.0],[2722941.0,1282170.0],[2723849.0,1282334.0],[2724314.0,1282288.0],[2725083.0,1281938.0],[2726125.0,1281135.0],[2727244.0,1280860.0],[2727730.0,1280665.0],[2728030.0,1280773.0],[2728415.0,1281049.0],[2728590.0,1281070.0],[2729125.0,1280873.0],[2729345.0,1280487.0],[2730088.0,1279693.0],[2730475.0,1279792.0],[2730515.0,1279594.0],[2730614.0,1279700.0],[2731343.0,1279997.0],[2732545.0,1279788.0],[2733431.0,1279782.0],[2736556.0,1280256.0],[2747038.0,1276239.0],[2754821.0,1268778.0],[2759599.0,1267841.0],[2759983.0,1262780.0],[2760269.0,1262360.0],[2761520.0,1261350.0],[2762575.0,1259188.0],[2762988.0,1259006.0],[2763180.0,1259062.0],[2763323.0,1259276.0],[2763426.0,1259928.0],[2763614.0,1260013.0],[2763818.0,1259876.0],[2764230.0,1259076.0],[2764652.0,1258588.0],[2764951.0,1258511.0],[2766413.0,1258437.0],[2767149.0,1258279.0],[2767427.0,1258082.0],[2767441.0,1257739.0],[2767366.0,1257589.0],[2766533.0,1256662.0],[2766397.0,1256354.0],[2766382.0,1256042.0],[2766870.0,1254604.0],[2767021.0,1252778.0],[2767230.0,1252759.0],[2767683.0,1252009.0],[2768632.0,1251489.0],[2768762.0,1251217.0],[2768764.0,1250520.0],[2768720.0,1250206.0],[2768539.0,1249837.0],[2767794.0,1248963.0],[2767056.0,1248654.0],[2765912.0,1248603.0],[2765232.0,1248330.0],[2765091.0,1248444.0],[2763724.0,1246817.0],[2763268.0,1246055.0],[2762498.0,1242951.0],[2762023.0,1242244.0],[2760833.0,1241428.0],[2760158.0,1240769.0],[2760027.0,1240498.0],[2759804.0,1239468.0],[2759436.0,1238710.0],[2758458.0,1237902.0],[2758313.0,1237678.0],[2758275.0,1236730.0],[2757599.0,1234651.0],[2756457.0,1232526.0],[2756245.0,1231970.0],[2756116.0,1230977.0],[2755413.0,1229314.0],[2755160.0,1227634.0],[2755628.0,1225592.0],[2756305.0,1224141.0],[2756893.0,1223335.0],[2757275.0,1222192.0],[2757886.0,1219260.0],[2757947.0,1218266.0],[2757691.0,1217292.0],[2757540.0,1217041.0],[2755961.0,1215688.0],[2754676.0,1214890.0],[2754476.0,1214669.0],[2754440.0,1214278.0],[2754773.0,1213200.0],[2754850.0,1213243.0],[2754849.0,1213519.0],[2754990.0,1213640.0],[2755253.0,1213698.0],[2755234.0,1213300.0],[2755433.0,1212940.0],[2755537.0,1212924.0],[2755939.0,1213731.0],[2756091.0,1213765.0],[2756407.0,1213511.0],[2756570.0,1213514.0],[2756596.0,1213846.0],[2756809.0,1213751.0],[2757514.0,1213836.0],[2757670.0,1213898.0],[2757844.0,1214208.0],[2759026.0,1214557.0],[2759592.0,1214817.0],[2760298.0,1214376.0],[2760512.0,1214141.0],[2760643.0,1213937.0],[2760757.0,1213198.0],[2760945.0,1213004.0],[2761099.0,1212998.0],[2761520.0,1213278.0],[2762147.0,1213509.0],[2762381.0,1213572.0],[2762850.0,1213521.0],[2762962.0,1213645.0],[2763305.0,1213781.0],[2763560.0,1214036.0],[2764167.0,1214255.0],[2764441.0,1214574.0],[2764727.0,1214463.0],[2765508.0,1213697.0],[2766103.0,1213576.0],[2766209.0,1213461.0],[2766691.0,1213466.0],[2766983.0,1213525.0],[2767340.0,1213781.0],[2767354.0,1214011.0],[2767605.0,1214440.0],[2768609.0,1214291.0],[2769073.0,1214488.0],[2769444.0,1214433.0],[2769689.0,1214489.0],[2770238.0,1214786.0],[2770391.0,1214777.0],[2770422.0,1214416.0],[2770895.0,1214027.0],[2771224.0,1213966.0],[2771616.0,1213732.0],[2771922.0,1213721.0],[2772373.0,1213912.0],[2772455.0,1213676.0],[2772238.0,1213524.0],[2772347.0,1213271.0],[2773104.0,1212938.0],[2773213.0,1212776.0],[2773725.0,1212863.0],[2774262.0,1212810.0],[2774427.0,1212702.0],[2774729.0,1212655.0],[2775011.0,1212751.0],[2775044.0,1212621.0],[2775275.0,1212580.0],[2775286.0,1212365.0],[2775503.0,1212126.0],[2775946.0,1212129.0],[2776174.0,1212248.0],[2776641.0,1212209.0],[2777096.0,1212405.0],[2777802.0,1212405.0],[2778009.0,1212317.0],[2778297.0,1212382.0],[2778334.0,1212190.0],[2778668.0,1211979.0],[2778849.0,1211643.0],[2779580.0,1211376.0],[2779556.0,1211271.0],[2779775.0,1211130.0],[2780067.0,1210776.0],[2780206.0,1210775.0],[2780435.0,1210583.0],[2780629.0,1210604.0],[2780670.0,1210681.0],[2781293.0,1210401.0],[2781464.0,1210169.0],[2781711.0,1210067.0],[2781861.0,1209802.0],[2782071.0,1209831.0],[2782275.0,1209616.0],[2782549.0,1209638.0],[2782427.0,1209667.0],[2782637.0,1209915.0],[2783049.0,1210056.0],[2783524.0,1210086.0],[2783837.0,1210362.0],[2784034.0,1210858.0],[2784605.0,1210666.0],[2785294.0,1210676.0],[2785540.0,1210498.0],[2785620.0,1210241.0],[2785389.0,1210126.0],[2785254.0,1209897.0],[2784935.0,1209757.0],[2785011.0,1209442.0],[2784912.0,1209377.0],[2785058.0,1209259.0],[2785118.0,1209016.0],[2785902.0,1208568.0],[2786318.0,1208428.0],[2786396.0,1207700.0],[2786622.0,1207284.0],[2786539.0,1207058.0],[2786070.0,1206723.0],[2785946.0,1206475.0],[2786065.0,1206209.0],[2785725.0,1205781.0],[2785674.0,1205573.0],[2785417.0,1205389.0],[2785347.0,1205172.0],[2785465.0,1204990.0],[2785429.0,1204704.0],[2785075.0,1204217.0],[2785285.0,1203912.0],[2785704.0,1203553.0],[2785606.0,1202942.0],[2785435.0,1202802.0],[2785588.0,1202499.0],[2785646.0,1201859.0],[2785597.0,1201730.0],[2785914.0,1201673.0],[2785831.0,1201503.0],[2785691.0,1201447.0],[2785584.0,1201053.0],[2785703.0,1201020.0],[2785775.0,1201105.0],[2785933.0,1201107.0],[2786220.0,1200894.0],[2786992.0,1200765.0],[2787239.0,1200614.0],[2787429.0,1200300.0],[2787915.0,1200089.0],[2788041.0,1200051.0],[2788368.0,1200187.0],[2788597.0,1200002.0],[2788707.0,1199710.0],[2789096.0,1199406.0],[2790310.0,1198831.0],[2790775.0,1198828.0],[2790991.0,1198746.0],[2791270.0,1198969.0],[2791964.0,1199186.0],[2792177.0,1199030.0],[2792285.0,1198793.0],[2792385.0,1198839.0],[2792548.0,1198782.0],[2792933.0,1198931.0],[2793038.0,1199131.0],[2793395.0,1199216.0],[2793708.0,1198785.0],[2793751.0,1198493.0],[2793682.0,1198365.0],[2793778.0,1198151.0],[2794113.0,1198088.0],[2794376.0,1197749.0],[2794933.0,1197726.0],[2795195.0,1197498.0],[2795593.0,1197388.0],[2795882.0,1197588.0],[2796275.0,1197564.0],[2796489.0,1197730.0],[2796655.0,1197420.0],[2796931.0,1197174.0],[2797169.0,1197107.0],[2797633.0,1196253.0],[2797827.0,1196102.0],[2798053.0,1196130.0],[2798184.0,1196028.0],[2798338.0,1195824.0],[2798442.0,1195439.0],[2798671.0,1195396.0],[2799060.0,1195066.0],[2799179.0,1195053.0],[2799236.0,1194827.0],[2799159.0,1194721.0],[2799195.0,1194543.0],[2799095.0,1194402.0],[2799159.0,1194342.0],[2799171.0,1193629.0],[2799460.0,1193389.0],[2799637.0,1193429.0],[2799820.0,1193298.0],[2800103.0,1193394.0],[2800509.0,1193372.0],[2800987.0,1193467.0],[2801673.0,1193297.0],[2801942.0,1193416.0],[2802040.0,1193269.0],[2802352.0,1193080.0],[2802324.0,1192342.0],[2802611.0,1192188.0],[2802996.0,1191787.0],[2803391.0,1191203.0],[2803965.0,1191368.0],[2804157.0,1191564.0],[2804422.0,1191607.0],[2804471.0,1191965.0],[2804641.0,1191965.0],[2804708.0,1192096.0],[2805357.0,1191992.0],[2805956.0,1192016.0],[2806258.0,1192180.0],[2806373.0,1192444.0],[2806525.0,1192484.0],[2807102.0,1192383.0],[2807200.0,1192294.0],[2807209.0,1192115.0],[2807327.0,1192117.0],[2807717.0,1192479.0],[2808204.0,1192459.0],[2808398.0,1192800.0],[2808909.0,1192860.0],[2809172.0,1193032.0],[2809272.0,1193425.0],[2809843.0,1193887.0],[2810017.0,1194278.0],[2810424.0,1194313.0],[2810799.0,1194102.0],[2811037.0,1194178.0],[2811207.0,1194139.0],[2811962.0,1194440.0],[2812246.0,1194345.0],[2812990.0,1194366.0],[2812838.0,1194711.0],[2812977.0,1194879.0],[2812898.0,1195420.0],[2813040.0,1195652.0],[2813082.0,1196415.0],[2812749.0,1196884.0],[2812510.0,1197009.0],[2812423.0,1197325.0],[2812468.0,1197453.0],[2812344.0,1197641.0],[2812416.0,1197775.0],[2812689.0,1197917.0],[2812898.0,1198295.0],[2813127.0,1199868.0],[2813344.0,1199972.0],[2813494.0,1200229.0],[2813367.0,1200795.0],[2813420.0,1201409.0],[2813335.0,1201618.0],[2814242.0,1201578.0],[2815346.0,1201408.0],[2817122.0,1200811.0],[2817207.0,1200856.0],[2817665.0,1200504.0],[2817944.0,1201038.0],[2818604.0,1201192.0],[2819104.0,1201138.0],[2819174.0,1201240.0],[2819165.0,1201783.0],[2818617.0,1202283.0],[2818286.0,1202790.0],[2818460.0,1203147.0],[2818372.0,1203479.0],[2818492.0,1203899.0],[2819006.0,1204068.0],[2819361.0,1204069.0],[2819639.0,1204162.0],[2819881.0,1204370.0],[2820001.0,1204928.0],[2819966.0,1205519.0],[2820294.0,1206110.0],[2820315.0,1206449.0],[2820761.0,1207117.0],[2820694.0,1207441.0],[2820830.0,1207553.0],[2820979.0,1207546.0],[2821052.0,1207650.0],[2821155.0,1207970.0],[2821156.0,1208379.0],[2821276.0,1208383.0],[2821342.0,1208505.0],[2821789.0,1208711.0],[2822082.0,1208616.0],[2822619.0,1208651.0],[2823093.0,1208572.0],[2823200.0,1208787.0],[2823559.0,1209054.0],[2824010.0,1209641.0],[2824364.0,1209715.0],[2825062.0,1209365.0],[2825382.0,1208678.0],[2825742.0,1208437.0],[2826202.0,1207796.0],[2826827.0,1207519.0],[2827302.0,1207063.0],[2827358.0,1206563.0],[2827282.0,1206276.0],[2827069.0,1205930.0],[2827080.0,1205506.0],[2827017.0,1205394.0],[2827364.0,1205023.0],[2827613.0,1204883.0],[2828214.0,1204897.0],[2828380.0,1204707.0],[2828596.0,1204721.0],[2829117.0,1204533.0],[2829596.0,1204614.0],[2829715.0,1204393.0],[2830260.0,1204105.0],[2830636.0,1204011.0],[2831223.0,1203359.0],[2831777.0,1203159.0],[2832137.0,1203140.0],[2832238.0,1203037.0],[2832094.0,1202831.0],[2832065.0,1202679.0],[2832151.0,1202652.0],[2831999.0,1202498.0],[2831957.0,1202321.0],[2831980.0,1202141.0],[2832181.0,1201949.0],[2832208.0,1201756.0],[2832085.0,1201313.0],[2832122.0,1201103.0],[2832011.0,1200897.0],[2832096.0,1200548.0],[2831889.0,1200209.0],[2831533.0,1199984.0],[2831502.0,1199189.0],[2831317.0,1198924.0],[2831340.0,1198163.0],[2831143.0,1197955.0],[2831116.0,1197768.0],[2830912.0,1197594.0],[2830591.0,1197020.0],[2830762.0,1196936.0],[2830950.0,1196681.0],[2831140.0,1195782.0],[2831094.0,1195085.0],[2830939.0,1194567.0],[2831287.0,1193090.0],[2831058.0,1192966.0],[2830711.0,1192232.0],[2830783.0,1192095.0],[2830919.0,1192036.0],[2830937.0,1191647.0],[2830683.0,1191440.0],[2830453.0,1191504.0],[2830385.0,1191148.0],[2830206.0,1190988.0],[2830522.0,1190372.0],[2830181.0,1190055.0],[2830214.0,1189680.0],[2830350.0,1189421.0],[2830093.0,1188956.0],[2830065.0,1188591.0],[2829876.0,1188270.0],[2829859.0,1188066.0],[2829683.0,1187978.0],[2829728.0,1187904.0],[2829642.0,1187694.0],[2829467.0,1187670.0],[2829002.0,1187321.0],[2828286.0,1187198.0],[2828286.0,1187029.0],[2828158.0,1186869.0],[2828082.0,1186907.0],[2828186.0,1186577.0],[2828095.0,1186370.0],[2827800.0,1186230.0],[2827865.0,1186083.0],[2828287.0,1185924.0],[2828467.0,1185639.0],[2828665.0,1185560.0],[2828734.0,1185152.0],[2829216.0,1184700.0],[2829330.0,1184389.0],[2829341.0,1183927.0],[2829536.0,1183418.0],[2829555.0,1182939.0],[2829470.0,1182470.0],[2829404.0,1182264.0],[2829205.0,1182343.0],[2828930.0,1182316.0],[2828009.0,1181457.0],[2827253.0,1180930.0],[2827154.0,1180657.0],[2826357.0,1180123.0],[2826313.0,1179993.0],[2827008.0,1179521.0],[2827046.0,1179218.0],[2827457.0,1178688.0],[2827791.0,1178541.0],[2827709.0,1178331.0],[2827755.0,1178026.0],[2827557.0,1177764.0],[2827565.0,1177448.0],[2827625.0,1177410.0],[2827179.0,1176999.0],[2826742.0,1176923.0],[2826668.0,1176982.0],[2826193.0,1175882.0],[2826204.0,1175705.0],[2825983.0,1175154.0],[2825780.0,1175025.0],[2825594.0,1175020.0],[2825546.0,1174887.0],[2825234.0,1174901.0],[2825113.0,1174566.0],[2825392.0,1174329.0],[2825587.0,1173870.0],[2825749.0,1173713.0],[2825886.0,1173212.0],[2825983.0,1173184.0],[2825875.0,1172793.0],[2825983.0,1172566.0],[2826044.0,1172111.0],[2825919.0,1171780.0],[2826013.0,1171362.0],[2826345.0,1171122.0],[2826381.0,1170742.0],[2826695.0,1170337.0],[2826820.0,1169780.0],[2826684.0,1169538.0],[2826877.0,1169348.0],[2827408.0,1169173.0],[2828242.0,1169567.0],[2830015.0,1169754.0],[2830209.0,1169971.0],[2831505.0,1169107.0],[2833041.0,1167700.0],[2833233.0,1167435.0],[2833586.0,1167195.0],[2833839.0,1167232.0],[2833787.0,1166750.0],[2833500.0,1166456.0],[2833300.0,1166065.0],[2833553.0,1165328.0],[2833306.0,1164627.0],[2833405.0,1164437.0],[2833491.0,1164468.0],[2833623.0,1164350.0],[2833454.0,1163796.0],[2833486.0,1163697.0],[2833324.0,1163379.0],[2833446.0,1163006.0],[2833132.0,1162689.0],[2833043.0,1162405.0],[2832904.0,1162276.0],[2832866.0,1161885.0],[2832718.0,1161770.0],[2832763.0,1161585.0],[2832688.0,1161328.0],[2833006.0,1160750.0],[2832769.0,1160075.0],[2832522.0,1159727.0],[2832635.0,1159192.0],[2832575.0,1159096.0],[2832117.0,1158913.0],[2831634.0,1158907.0],[2831613.0,1158375.0],[2831436.0,1158223.0],[2831195.0,1157707.0],[2830820.0,1157995.0],[2829932.0,1158404.0],[2829680.0,1158832.0],[2828841.0,1159468.0],[2828608.0,1159806.0],[2828459.0,1159897.0],[2828177.0,1159860.0],[2827761.0,1159644.0],[2827632.0,1159471.0],[2826865.0,1159014.0],[2826172.0,1159349.0],[2825860.0,1159658.0],[2825482.0,1159636.0],[2825186.0,1159920.0],[2825000.0,1159903.0],[2824788.0,1160050.0],[2824565.0,1160055.0],[2824275.0,1160206.0],[2823571.0,1160161.0],[2823353.0,1160213.0],[2823211.0,1159859.0],[2823254.0,1159491.0],[2823110.0,1159443.0],[2822645.0,1158841.0],[2822359.0,1158713.0],[2822125.0,1158905.0],[2821746.0,1159436.0],[2821347.0,1159678.0],[2821306.0,1159570.0],[2821014.0,1159461.0],[2820831.0,1159268.0],[2820630.0,1159288.0],[2820292.0,1159078.0],[2820029.0,1159373.0],[2819570.0,1159306.0],[2819101.0,1159400.0],[2818967.0,1159615.0],[2819115.0,1159950.0],[2819059.0,1160389.0],[2818538.0,1161011.0],[2818490.0,1161437.0],[2818356.0,1161644.0],[2817949.0,1161696.0],[2817526.0,1161858.0],[2817190.0,1162054.0],[2817155.0,1162219.0],[2816941.0,1162405.0],[2816720.0,1162297.0],[2816520.0,1162329.0],[2815802.0,1161646.0],[2815169.0,1162042.0],[2815011.0,1162375.0],[2814982.0,1163032.0],[2814765.0,1163589.0],[2814779.0,1163874.0],[2814866.0,1164136.0],[2815040.0,1164305.0],[2815245.0,1164899.0],[2815448.0,1165088.0],[2815774.0,1165776.0],[2816026.0,1165990.0],[2814884.0,1167278.0],[2814589.0,1167810.0],[2814484.0,1168699.0],[2814412.0,1168728.0],[2813654.0,1168288.0],[2813532.0,1168097.0],[2813275.0,1167995.0],[2812963.0,1167446.0],[2812990.0,1167155.0],[2812648.0,1166617.0],[2811948.0,1167018.0],[2810946.0,1167246.0],[2810901.0,1167423.0],[2810961.0,1167521.0],[2810887.0,1167555.0],[2810522.0,1167504.0],[2810152.0,1167311.0],[2808604.0,1166338.0],[2808440.0,1166383.0],[2808265.0,1166235.0],[2807761.0,1166183.0],[2807183.0,1165733.0],[2806704.0,1165720.0],[2806638.0,1165368.0],[2806495.0,1165398.0],[2806337.0,1165213.0],[2805980.0,1165068.0],[2805687.0,1165171.0],[2805380.0,1165131.0],[2804872.0,1165256.0],[2804355.0,1165634.0],[2804024.0,1165628.0],[2803903.0,1165198.0],[2803774.0,1165077.0],[2803823.0,1164803.0],[2803979.0,1164545.0],[2803881.0,1164316.0],[2803712.0,1164176.0],[2803681.0,1163697.0],[2804014.0,1163232.0],[2803936.0,1162964.0],[2804056.0,1162775.0],[2804001.0,1162511.0],[2803743.0,1162240.0],[2803640.0,1161901.0],[2802344.0,1161610.0],[2802440.0,1161189.0],[2802689.0,1161016.0],[2802889.0,1160738.0],[2802729.0,1160548.0],[2802668.0,1160327.0],[2802511.0,1160252.0],[2802335.0,1160002.0],[2802002.0,1159935.0],[2801871.0,1159804.0],[2801816.0,1159499.0],[2801672.0,1159254.0],[2801668.0,1158924.0],[2801251.0,1158608.0],[2801131.0,1158297.0],[2800745.0,1158154.0],[2800392.0,1158191.0],[2800279.0,1158084.0],[2800014.0,1158075.0],[2799997.0,1157891.0],[2799807.0,1157670.0],[2799817.0,1157349.0],[2799958.0,1157138.0],[2800579.0,1156719.0],[2800575.0,1156607.0],[2800351.0,1156409.0],[2800648.0,1155718.0],[2800642.0,1155230.0],[2800493.0,1154677.0],[2800143.0,1154353.0],[2799795.0,1154286.0],[2799853.0,1153893.0],[2800042.0,1153406.0],[2800357.0,1153143.0],[2800101.0,1152766.0],[2800052.0,1152420.0],[2800097.0,1152100.0],[2800354.0,1151832.0],[2800003.0,1151257.0],[2799949.0,1150953.0],[2799996.0,1150732.0],[2800640.0,1150106.0],[2800662.0,1149611.0],[2800724.0,1149415.0],[2800899.0,1149275.0],[2800763.0,1148797.0],[2800321.0,1148459.0],[2800352.0,1148277.0],[2800130.0,1148183.0],[2800120.0,1148045.0],[2799976.0,1147861.0],[2800036.0,1147504.0],[2799788.0,1147272.0],[2800015.0,1146821.0],[2800141.0,1146724.0],[2800423.0,1146739.0],[2800699.0,1146653.0],[2800847.0,1146497.0],[2800951.0,1146489.0],[2801126.0,1146636.0],[2801288.0,1146351.0],[2801232.0,1146102.0],[2801292.0,1145658.0],[2801577.0,1145157.0],[2801806.0,1145072.0],[2801805.0,1144991.0],[2802551.0,1145309.0],[2802777.0,1145281.0],[2803019.0,1145002.0],[2802951.0,1144724.0],[2803036.0,1144500.0],[2803203.0,1144567.0],[2803564.0,1144544.0],[2803839.0,1144701.0],[2804108.0,1144692.0],[2804346.0,1144556.0],[2804614.0,1144582.0],[2804715.0,1144718.0],[2804734.0,1144961.0],[2805050.0,1145080.0],[2805140.0,1145372.0],[2805864.0,1145146.0],[2806005.0,1145506.0],[2806236.0,1145635.0],[2806591.0,1145649.0],[2806754.0,1145813.0],[2806892.0,1145801.0],[2807058.0,1145527.0],[2807836.0,1145469.0],[2807782.0,1145325.0],[2807947.0,1145046.0],[2808110.0,1145020.0],[2808177.0,1144908.0],[2808323.0,1144020.0],[2808248.0,1143914.0],[2808385.0,1143763.0],[2808491.0,1143906.0],[2808642.0,1143878.0],[2808974.0,1144125.0],[2809278.0,1144080.0],[2809496.0,1143549.0],[2809738.0,1143229.0],[2809395.0,1142843.0],[2809407.0,1142369.0],[2809566.0,1141934.0],[2809496.0,1141875.0],[2809495.0,1141680.0],[2809593.0,1141343.0],[2809454.0,1140985.0],[2809330.0,1140954.0],[2809209.0,1140764.0],[2808983.0,1140680.0],[2808508.0,1140735.0],[2808345.0,1140881.0],[2807963.0,1140790.0],[2806849.0,1139809.0],[2806925.0,1139415.0],[2806770.0,1139151.0],[2806751.0,1138924.0],[2806856.0,1138853.0],[2807026.0,1137939.0],[2806255.0,1137501.0],[2805827.0,1136969.0],[2805562.0,1137030.0],[2805468.0,1136934.0],[2805431.0,1136744.0],[2805552.0,1136238.0],[2805511.0,1136034.0],[2805315.0,1135800.0],[2805381.0,1135652.0],[2805292.0,1135463.0],[2805242.0,1134794.0],[2805632.0,1134282.0],[2805929.0,1133720.0],[2806023.0,1133215.0],[2806241.0,1132707.0],[2806789.0,1132496.0],[2807576.0,1131858.0],[2807987.0,1131716.0],[2807934.0,1131323.0],[2808014.0,1131153.0],[2808545.0,1130723.0],[2809083.0,1130588.0],[2809223.0,1130440.0],[2809418.0,1130057.0],[2809226.0,1129718.0],[2809269.0,1129617.0],[2809748.0,1129442.0],[2809896.0,1129300.0],[2809827.0,1128689.0],[2809867.0,1128524.0],[2810000.0,1128459.0],[2810004.0,1128095.0],[2810368.0,1127934.0],[2810690.0,1127580.0],[2810859.0,1127037.0],[2811070.0,1126666.0],[2810962.0,1126255.0],[2809165.0,1124527.0],[2808821.0,1123497.0],[2807791.0,1122838.0],[2807503.0,1122907.0],[2807098.0,1122693.0],[2806758.0,1122856.0],[2806003.0,1122870.0],[2805554.0,1123172.0],[2805219.0,1123054.0],[2804875.0,1123151.0],[2804765.0,1123058.0],[2804401.0,1123048.0],[2803838.0,1122767.0],[2803043.0,1121819.0],[2802774.0,1121901.0],[2802713.0,1122084.0],[2802469.0,1122136.0],[2802107.0,1122656.0],[2801888.0,1122676.0],[2801831.0,1122793.0],[2801559.0,1122939.0],[2801387.0,1122878.0],[2801317.0,1123025.0],[2800948.0,1123145.0],[2801008.0,1123324.0],[2801375.0,1123500.0],[2801689.0,1123849.0],[2801735.0,1124133.0],[2801645.0,1124451.0],[2801917.0,1124772.0],[2801911.0,1125078.0],[2802178.0,1125248.0],[2802161.0,1125530.0],[2802005.0,1125793.0],[2802004.0,1126074.0],[2801795.0,1126203.0],[2801938.0,1126348.0],[2801739.0,1126787.0],[2801718.0,1127188.0],[2801566.0,1127321.0],[2801355.0,1127320.0],[2800942.0,1127614.0],[2800783.0,1127628.0],[2800403.0,1128007.0],[2799927.0,1128232.0],[2799805.0,1128370.0],[2798193.0,1128757.0],[2798071.0,1128718.0],[2797410.0,1128946.0],[2797056.0,1129157.0],[2796901.0,1129886.0],[2796768.0,1130045.0],[2796692.0,1130406.0],[2796762.0,1130524.0],[2797023.0,1130538.0],[2797195.0,1130934.0],[2797368.0,1131017.0],[2797364.0,1131262.0],[2797258.0,1131299.0],[2797263.0,1131397.0],[2797162.0,1131362.0],[2797141.0,1131510.0],[2797000.0,1131645.0],[2797260.0,1131935.0],[2797272.0,1132308.0],[2797084.0,1132394.0],[2796856.0,1132371.0],[2796795.0,1132516.0],[2796204.0,1132949.0],[2796125.0,1133114.0],[2795687.0,1133362.0],[2795999.0,1133980.0],[2795974.0,1134125.0],[2796103.0,1134346.0],[2796072.0,1134592.0],[2796231.0,1134664.0],[2796289.0,1134815.0],[2796447.0,1134923.0],[2796479.0,1135225.0],[2796605.0,1135385.0],[2796851.0,1135523.0],[2796729.0,1136012.0],[2796851.0,1136515.0],[2796650.0,1136652.0],[2795982.0,1136543.0],[2795924.0,1136707.0],[2795354.0,1137149.0],[2795076.0,1137249.0],[2794865.0,1137542.0],[2794354.0,1137838.0],[2793642.0,1138911.0],[2793889.0,1139437.0],[2793795.0,1139508.0],[2793399.0,1139537.0],[2792858.0,1139315.0],[2792703.0,1139325.0],[2792004.0,1138989.0],[2791671.0,1138622.0],[2791769.0,1138227.0],[2791627.0,1138084.0],[2791321.0,1137988.0],[2791133.0,1138500.0],[2790865.0,1138592.0],[2790669.0,1138451.0],[2790545.0,1138794.0],[2790084.0,1139460.0],[2789855.0,1139598.0],[2789443.0,1139370.0],[2789232.0,1139118.0],[2789045.0,1139107.0],[2788303.0,1138693.0],[2788101.0,1138713.0],[2788094.0,1138512.0],[2787882.0,1138144.0],[2786951.0,1137448.0],[2786734.0,1137696.0],[2786521.0,1137551.0],[2786435.0,1137674.0],[2786312.0,1137543.0],[2786096.0,1137612.0],[2786024.0,1137462.0],[2786014.0,1137519.0],[2785849.0,1137492.0],[2785760.0,1137588.0],[2785677.0,1137544.0],[2785675.0,1137620.0],[2785478.0,1137627.0],[2785223.0,1137327.0],[2784934.0,1137292.0],[2784796.0,1137398.0],[2784597.0,1137225.0],[2784222.0,1137210.0],[2783932.0,1136649.0],[2783156.0,1135921.0],[2782915.0,1135970.0],[2782473.0,1135766.0],[2782402.0,1135639.0],[2782113.0,1135486.0],[2781941.0,1135241.0],[2781174.0,1135112.0],[2780820.0,1134849.0],[2780603.0,1134857.0],[2780141.0,1134221.0],[2780016.0,1134175.0],[2779476.0,1134258.0],[2779107.0,1134437.0],[2778828.0,1134688.0],[2778501.0,1135208.0],[2777705.0,1135544.0],[2777393.0,1135985.0],[2777074.0,1135766.0],[2776890.0,1135872.0],[2776647.0,1135630.0],[2776626.0,1135489.0],[2776143.0,1135136.0],[2775848.0,1134711.0],[2776047.0,1134375.0],[2776225.0,1133825.0],[2775924.0,1133633.0],[2775920.0,1133408.0],[2775556.0,1133125.0],[2775472.0,1132784.0],[2775535.0,1132571.0],[2775953.0,1132510.0],[2776143.0,1132376.0],[2776170.0,1131691.0],[2776060.0,1131282.0],[2775876.0,1131200.0],[2775589.0,1130870.0],[2775389.0,1130106.0],[2775369.0,1129760.0],[2775427.0,1129673.0],[2775351.0,1129378.0],[2774988.0,1129254.0],[2774709.0,1129256.0],[2774396.0,1129117.0],[2773733.0,1129428.0],[2773403.0,1129373.0],[2773259.0,1129429.0],[2773030.0,1129663.0],[2772803.0,1129760.0],[2772767.0,1130071.0],[2772470.0,1130286.0],[2772428.0,1130428.0],[2772257.0,1130374.0],[2771940.0,1130059.0],[2771832.0,1129622.0],[2771479.0,1129721.0],[2771305.0,1129676.0],[2771085.0,1129565.0],[2770784.0,1129260.0],[2770613.0,1129272.0],[2770409.0,1129142.0],[2770379.0,1128878.0],[2770035.0,1128775.0],[2769808.0,1128550.0],[2769247.0,1128447.0],[2768494.0,1128647.0],[2767988.0,1128550.0],[2767914.0,1128710.0],[2767456.0,1129087.0],[2767324.0,1129334.0],[2767036.0,1129285.0],[2766456.0,1129444.0],[2765963.0,1129183.0],[2765746.0,1129346.0],[2765470.0,1129364.0],[2765253.0,1129252.0],[2765124.0,1129369.0],[2764842.0,1129362.0],[2764443.0,1129769.0],[2764266.0,1129738.0],[2763966.0,1130001.0],[2763603.0,1130121.0],[2763489.0,1130220.0],[2763422.0,1130516.0],[2763041.0,1130514.0],[2762833.0,1130208.0],[2762619.0,1130069.0],[2762071.0,1130459.0],[2761328.0,1131185.0],[2760152.0,1132756.0],[2760116.0,1133111.0],[2759999.0,1133364.0],[2759808.0,1133330.0],[2759764.0,1133684.0],[2759584.0,1133798.0],[2759566.0,1134184.0],[2759299.0,1135057.0],[2759317.0,1135436.0],[2759040.0,1135550.0],[2758680.0,1135939.0],[2758601.0,1136125.0],[2758615.0,1136367.0],[2758344.0,1136848.0],[2758031.0,1136990.0],[2757638.0,1137034.0],[2757670.0,1137119.0],[2757302.0,1137139.0],[2757018.0,1137570.0],[2756745.0,1137505.0],[2756496.0,1137685.0],[2756368.0,1137653.0],[2756160.0,1137791.0],[2755872.0,1137835.0],[2755592.0,1138074.0],[2755742.0,1138546.0],[2755578.0,1138899.0],[2755870.0,1138942.0],[2755948.0,1139076.0],[2755927.0,1139241.0],[2756165.0,1139494.0],[2755961.0,1139846.0],[2755966.0,1140570.0],[2755715.0,1141205.0],[2755746.0,1141340.0],[2755509.0,1141819.0],[2755538.0,1142053.0],[2755410.0,1142279.0],[2755076.0,1142540.0],[2754953.0,1143038.0],[2755191.0,1144483.0],[2755111.0,1144792.0],[2755373.0,1145438.0],[2755267.0,1145893.0],[2755319.0,1146437.0],[2755171.0,1147095.0],[2755256.0,1147576.0],[2755196.0,1147749.0],[2755265.0,1147911.0],[2755407.0,1147940.0],[2755612.0,1148154.0],[2755670.0,1148474.0],[2755560.0,1148751.0],[2755518.0,1149477.0],[2755430.0,1149691.0],[2754420.0,1149607.0],[2754361.0,1150095.0],[2755277.0,1150170.0],[2755368.0,1151639.0],[2755220.0,1152464.0],[2755464.0,1152726.0],[2755401.0,1152846.0],[2755018.0,1152778.0],[2754874.0,1152674.0],[2754760.0,1152434.0],[2753179.0,1151569.0],[2752868.0,1150980.0],[2752684.0,1150852.0],[2752476.0,1150533.0],[2752472.0,1150393.0],[2752606.0,1150201.0],[2752450.0,1149791.0],[2752467.0,1149129.0],[2752014.0,1148718.0],[2751671.0,1148112.0],[2751536.0,1148082.0],[2751339.0,1148071.0],[2750662.0,1148376.0],[2750455.0,1148365.0],[2750167.0,1148676.0],[2749839.0,1148725.0],[2749873.0,1148884.0],[2749690.0,1149114.0],[2749695.0,1149377.0],[2749480.0,1149534.0],[2749464.0,1149750.0],[2749226.0,1149768.0],[2749069.0,1149955.0],[2748883.0,1149897.0],[2748777.0,1149986.0],[2748601.0,1150440.0],[2748360.0,1150516.0],[2748147.0,1151019.0],[2748230.0,1151420.0],[2748498.0,1151614.0],[2748494.0,1152123.0],[2748104.0,1152246.0],[2747738.0,1152701.0],[2747636.0,1152720.0],[2747336.0,1152480.0],[2747300.0,1152294.0],[2747086.0,1152125.0],[2746737.0,1152249.0],[2745864.0,1152043.0],[2745843.0,1152216.0],[2745704.0,1152284.0],[2743717.0,1152028.0],[2743261.0,1151665.0],[2742975.0,1151631.0],[2742157.0,1151223.0],[2741875.0,1151241.0],[2741522.0,1151124.0],[2741274.0,1150577.0],[2741327.0,1150368.0],[2741217.0,1150210.0],[2741276.0,1150121.0],[2740938.0,1149690.0],[2741029.0,1149358.0],[2741194.0,1149196.0],[2741098.0,1148731.0],[2741127.0,1148425.0],[2740946.0,1148143.0],[2740925.0,1147723.0],[2741023.0,1147394.0],[2741301.0,1147253.0],[2741062.0,1146999.0],[2741069.0,1146881.0],[2740855.0,1146504.0],[2740748.0,1146488.0],[2740701.0,1146321.0],[2740413.0,1146084.0],[2740107.0,1145922.0],[2739344.0,1145837.0],[2739222.0,1145774.0],[2739155.0,1145593.0],[2738944.0,1145540.0],[2739108.0,1144599.0],[2739070.0,1144035.0],[2739426.0,1143574.0],[2740127.0,1143066.0],[2740289.0,1142648.0],[2740602.0,1142581.0],[2740689.0,1142490.0],[2741005.0,1142621.0],[2741194.0,1142560.0],[2741332.0,1142061.0],[2741583.0,1141973.0],[2741783.0,1140955.0],[2741506.0,1140774.0],[2741753.0,1140578.0],[2741624.0,1140239.0],[2741294.0,1139824.0],[2741504.0,1139233.0],[2741699.0,1139001.0],[2741969.0,1138878.0],[2741976.0,1138749.0],[2741719.0,1138345.0],[2741686.0,1138145.0],[2741514.0,1138084.0],[2741491.0,1137613.0],[2741294.0,1137471.0],[2741453.0,1137261.0],[2741458.0,1136912.0],[2741383.0,1136810.0],[2741592.0,1136682.0],[2741909.0,1135741.0],[2742971.0,1135492.0],[2743093.0,1135082.0],[2742972.0,1134772.0],[2743084.0,1134689.0],[2743277.0,1134167.0],[2743194.0,1133960.0],[2742746.0,1133530.0],[2742700.0,1133331.0],[2742854.0,1132763.0],[2743068.0,1132472.0],[2743280.0,1132381.0],[2743176.0,1132093.0],[2742980.0,1131898.0],[2743040.0,1131801.0],[2742976.0,1131699.0],[2742977.0,1131286.0],[2742805.0,1131101.0],[2742214.0,1130899.0],[2742143.0,1130595.0],[2741958.0,1130328.0],[2742124.0,1129942.0],[2742246.0,1128966.0],[2741884.0,1128737.0],[2741260.0,1128078.0],[2741285.0,1127988.0],[2741008.0,1127283.0],[2740286.0,1126856.0],[2740336.0,1126243.0],[2740168.0,1125840.0],[2739934.0,1125757.0],[2739761.0,1125492.0],[2739673.0,1125511.0],[2739784.0,1125443.0],[2739888.0,1125012.0],[2739587.0,1124327.0],[2739783.0,1123790.0],[2739547.0,1123375.0],[2739671.0,1123070.0],[2739599.0,1121868.0],[2739404.0,1121686.0],[2739132.0,1121744.0],[2738930.0,1121688.0],[2738746.0,1121807.0],[2738549.0,1121796.0],[2738438.0,1121703.0],[2738304.0,1121721.0],[2737794.0,1121364.0],[2737493.0,1121301.0],[2737501.0,1121027.0],[2737658.0,1120733.0],[2737438.0,1120384.0],[2737315.0,1119913.0],[2737371.0,1119667.0],[2737025.0,1119253.0],[2736608.0,1119163.0],[2736451.0,1119200.0],[2736098.0,1118969.0],[2735928.0,1118208.0],[2735770.0,1117944.0],[2735783.0,1117599.0],[2735670.0,1117361.0],[2735567.0,1117313.0],[2735627.0,1116815.0],[2735826.0,1116580.0],[2735586.0,1116238.0],[2735638.0,1116059.0],[2735588.0,1115709.0],[2735048.0,1115225.0],[2734743.0,1114689.0],[2734547.0,1114569.0],[2734247.0,1114755.0],[2733913.0,1114758.0],[2733699.0,1114851.0],[2733028.0,1114710.0],[2732888.0,1114582.0],[2732842.0,1114062.0],[2732684.0,1113746.0],[2732150.0,1113555.0],[2731768.0,1113313.0],[2731487.0,1112923.0],[2731005.0,1112730.0],[2730853.0,1112296.0],[2730598.0,1112063.0],[2730439.0,1111774.0],[2730455.0,1111605.0],[2730137.0,1111091.0],[2730046.0,1110652.0],[2729703.0,1110711.0],[2729329.0,1110625.0],[2729098.0,1110407.0],[2728756.0,1110308.0],[2728443.0,1109943.0],[2728387.0,1109716.0],[2728203.0,1109762.0],[2728020.0,1109637.0],[2727633.0,1109574.0],[2727362.0,1109412.0],[2727274.0,1109261.0],[2726568.0,1108969.0],[2726300.0,1108715.0],[2726415.0,1108276.0],[2726735.0,1107849.0],[2727015.0,1106958.0],[2727651.0,1105626.0],[2727695.0,1105288.0],[2727295.0,1104359.0],[2726905.0,1104037.0],[2726829.0,1103304.0],[2726895.0,1103033.0],[2726783.0,1102723.0],[2726530.0,1102539.0],[2725864.0,1102461.0],[2725497.0,1102311.0],[2725184.0,1102361.0],[2725107.0,1102467.0],[2724705.0,1102485.0],[2724532.0,1102392.0],[2724290.0,1102099.0],[2723873.0,1102087.0],[2723768.0,1101934.0],[2723065.0,1101412.0],[2722595.0,1101366.0],[2722178.0,1101029.0],[2722088.0,1100695.0],[2722213.0,1100479.0],[2722169.0,1100291.0],[2721612.0,1099634.0],[2721569.0,1098997.0],[2721479.0,1098798.0],[2721644.0,1098532.0],[2721600.0,1098472.0],[2721995.0,1098178.0],[2722090.0,1097958.0],[2722333.0,1097792.0],[2722665.0,1097383.0],[2722854.0,1095597.0],[2723176.0,1094810.0],[2722746.0,1094705.0],[2722724.0,1094347.0],[2722385.0,1094130.0],[2722006.0,1094246.0],[2721864.0,1094148.0],[2721858.0,1093622.0],[2721675.0,1093494.0],[2721570.0,1093296.0],[2721180.0,1093199.0],[2721085.0,1093294.0],[2720635.0,1093299.0],[2720693.0,1092449.0],[2720605.0,1092314.0],[2720424.0,1092413.0],[2720284.0,1092262.0],[2720124.0,1092437.0],[2720169.0,1092161.0],[2720568.0,1091748.0],[2722127.0,1091111.0],[2722254.0,1090031.0],[2722397.0,1089834.0],[2722143.0,1089330.0],[2722027.0,1089245.0],[2722138.0,1088995.0],[2722215.0,1089002.0],[2722268.0,1088884.0],[2722623.0,1088804.0],[2722663.0,1088659.0],[2722803.0,1088627.0],[2722838.0,1088524.0],[2722617.0,1087543.0],[2722893.0,1087620.0],[2723172.0,1087591.0],[2723434.0,1087352.0],[2723973.0,1087345.0],[2724430.0,1087484.0],[2724963.0,1086892.0],[2724940.0,1086707.0],[2725310.0,1086742.0],[2725425.0,1086687.0],[2725778.0,1086782.0],[2725724.0,1086285.0],[2726440.0,1085903.0],[2726416.0,1085649.0],[2726550.0,1085633.0],[2726548.0,1085774.0],[2726785.0,1085902.0],[2727094.0,1085750.0],[2727159.0,1085503.0],[2727021.0,1085156.0],[2727150.0,1084404.0],[2727912.0,1084743.0],[2728083.0,1084574.0],[2727966.0,1084422.0],[2728077.0,1084156.0],[2727795.0,1084047.0],[2727793.0,1083902.0],[2727533.0,1083578.0],[2727246.0,1083597.0],[2727194.0,1083426.0],[2727285.0,1083398.0],[2727371.0,1083225.0],[2727225.0,1082987.0],[2727253.0,1082824.0],[2726763.0,1082444.0],[2726387.0,1081729.0],[2726327.0,1081802.0],[2725909.0,1081664.0],[2725713.0,1081697.0],[2725490.0,1081507.0],[2725552.0,1081289.0],[2725363.0,1081055.0],[2725418.0,1080887.0],[2725250.0,1080799.0],[2725078.0,1080282.0],[2725105.0,1079820.0],[2725304.0,1079377.0],[2725028.0,1079232.0],[2725227.0,1079128.0],[2725035.0,1079061.0],[2724816.0,1078829.0],[2724699.0,1078493.0],[2724452.0,1078476.0],[2724297.0,1078185.0],[2724309.0,1077977.0],[2724083.0,1077860.0],[2724056.0,1077644.0],[2724262.0,1077247.0],[2724004.0,1076888.0],[2724032.0,1076629.0],[2723877.0,1076362.0],[2723864.0,1076091.0],[2723748.0,1076038.0],[2724027.0,1075857.0],[2723793.0,1075611.0],[2723575.0,1075586.0],[2723373.0,1075715.0],[2723070.0,1075710.0],[2722707.0,1075268.0],[2722115.0,1075455.0],[2721685.0,1075502.0],[2721227.0,1075790.0],[2720865.0,1075683.0],[2720798.0,1075807.0],[2720927.0,1076002.0],[2720886.0,1076155.0],[2721051.0,1076781.0],[2721154.0,1076839.0],[2721079.0,1076971.0],[2721127.0,1077125.0],[2720871.0,1077049.0],[2720536.0,1077156.0],[2720621.0,1077229.0],[2720279.0,1077506.0],[2719895.0,1077189.0],[2719720.0,1077218.0],[2719694.0,1077286.0],[2719467.0,1077281.0],[2719378.0,1077178.0],[2719461.0,1077050.0],[2719322.0,1076878.0],[2718996.0,1076795.0],[2718879.0,1076845.0],[2718749.0,1077057.0],[2718701.0,1077014.0],[2718620.0,1077129.0],[2718523.0,1077071.0],[2718325.0,1077229.0],[2718362.0,1077525.0],[2717903.0,1077802.0],[2717904.0,1078001.0],[2717715.0,1077967.0],[2717667.0,1077878.0],[2717327.0,1077995.0],[2716576.0,1077740.0],[2716360.0,1077543.0],[2716106.0,1077480.0],[2716035.0,1077186.0],[2715800.0,1077039.0],[2715812.0,1076848.0],[2715145.0,1076926.0],[2714506.0,1076497.0],[2714535.0,1077337.0],[2714643.0,1077810.0],[2716026.0,1079919.0],[2716204.0,1080114.0],[2716628.0,1080277.0],[2717004.0,1080607.0],[2716745.0,1080976.0],[2716361.0,1080631.0],[2716102.0,1080962.0],[2716165.0,1081137.0],[2716045.0,1081462.0],[2716065.0,1081892.0],[2715897.0,1082680.0],[2715556.0,1083329.0],[2715308.0,1083381.0],[2715208.0,1083742.0],[2715129.0,1083709.0],[2715098.0,1083772.0],[2715351.0,1084342.0],[2715278.0,1084872.0],[2714971.0,1085236.0],[2714489.0,1086210.0],[2713959.0,1086199.0],[2713684.0,1086667.0],[2713116.0,1087145.0],[2712835.0,1087667.0],[2712783.0,1088009.0],[2712836.0,1088357.0],[2713170.0,1089065.0],[2713213.0,1089350.0],[2713057.0,1089912.0],[2713045.0,1090291.0],[2712804.0,1090757.0],[2711612.0,1090475.0],[2711319.0,1090748.0],[2710835.0,1090903.0],[2710549.0,1091436.0],[2710234.0,1091503.0],[2709364.0,1092239.0],[2709167.0,1092562.0],[2708873.0,1092756.0],[2708809.0,1093185.0],[2708608.0,1093202.0],[2708535.0,1093486.0],[2708137.0,1093589.0],[2707915.0,1093897.0],[2707629.0,1093808.0],[2707366.0,1093872.0],[2707050.0,1093814.0],[2706713.0,1094009.0],[2706554.0,1094201.0],[2706276.0,1094068.0],[2705153.0,1094299.0],[2704894.0,1094274.0],[2704896.0,1094023.0],[2704776.0,1093905.0],[2704392.0,1093953.0],[2704914.0,1096077.0],[2705771.0,1097319.0],[2705880.0,1097631.0],[2706939.0,1098046.0],[2707504.0,1098810.0],[2707709.0,1099851.0],[2707919.0,1099739.0],[2708125.0,1100102.0],[2707580.0,1100397.0],[2707908.0,1100699.0],[2708038.0,1100942.0],[2708791.0,1100638.0],[2709570.0,1102106.0],[2709520.0,1102882.0],[2709350.0,1103664.0],[2708994.0,1103670.0],[2708593.0,1104127.0],[2707917.0,1104441.0],[2707330.0,1105166.0],[2707185.0,1105102.0],[2707024.0,1105361.0],[2706945.0,1105357.0],[2706921.0,1105581.0],[2706647.0,1105691.0],[2706459.0,1106023.0],[2705736.0,1106451.0],[2705265.0,1105711.0],[2703971.0,1105631.0],[2702815.0,1106342.0],[2702638.0,1106312.0],[2702177.0,1106422.0],[2701945.0,1106612.0],[2700773.0,1108705.0],[2699397.0,1107337.0],[2698627.0,1105881.0],[2697271.0,1106391.0],[2697052.0,1106297.0],[2696887.0,1106411.0],[2696645.0,1106330.0],[2696434.0,1106381.0],[2696229.0,1106725.0],[2696083.0,1106786.0],[2696067.0,1107010.0],[2695957.0,1107078.0],[2696036.0,1107214.0],[2695929.0,1107301.0],[2695742.0,1107251.0],[2695606.0,1107310.0],[2695226.0,1107117.0],[2695028.0,1107197.0],[2695010.0,1107282.0],[2694860.0,1107277.0],[2694248.0,1107530.0],[2694137.0,1107890.0],[2693446.0,1108719.0],[2692156.0,1108557.0],[2691880.0,1108617.0],[2691299.0,1108456.0],[2690687.0,1108473.0],[2690703.0,1108674.0],[2690509.0,1109076.0],[2690575.0,1109475.0],[2690503.0,1109718.0],[2690113.0,1109974.0],[2689943.0,1110309.0],[2689615.0,1110529.0],[2689415.0,1110779.0],[2689175.0,1110808.0],[2689195.0,1111156.0],[2689467.0,1111462.0],[2689724.0,1111566.0],[2689733.0,1111977.0],[2690008.0,1112015.0],[2689962.0,1112206.0],[2689291.0,1112237.0],[2688906.0,1112370.0],[2688796.0,1112327.0],[2688873.0,1112595.0],[2688765.0,1112651.0],[2688784.0,1112821.0],[2688711.0,1112890.0],[2688492.0,1113023.0],[2688024.0,1112881.0],[2687877.0,1113077.0],[2687666.0,1113171.0],[2687544.0,1113459.0],[2687353.0,1114566.0],[2686900.0,1115189.0],[2686866.0,1115342.0],[2686118.0,1115576.0],[2686188.0,1115697.0],[2686073.0,1116230.0],[2685444.0,1116694.0],[2685052.0,1116858.0],[2684728.0,1117571.0],[2684400.0,1119125.0],[2684112.0,1119317.0],[2683718.0,1119401.0],[2683565.0,1119510.0],[2683250.0,1119326.0],[2683062.0,1119315.0],[2682735.0,1119421.0],[2682034.0,1119958.0],[2681293.0,1120285.0],[2680865.0,1120410.0],[2680145.0,1120411.0],[2679580.0,1120621.0],[2679459.0,1120683.0],[2679291.0,1120965.0],[2679225.0,1121693.0],[2679089.0,1121974.0],[2678832.0,1121996.0],[2678694.0,1122133.0],[2678286.0,1122292.0],[2677786.0,1122329.0],[2677573.0,1122435.0],[2677392.0,1123019.0],[2677487.0,1123053.0],[2677657.0,1123396.0],[2677820.0,1123454.0],[2677861.0,1123830.0],[2677939.0,1123776.0],[2678427.0,1124100.0],[2677941.0,1125269.0],[2676887.0,1126516.0],[2676707.0,1126827.0],[2676700.0,1127198.0],[2676209.0,1127912.0],[2676304.0,1128118.0],[2676611.0,1128352.0],[2677187.0,1128571.0],[2677076.0,1128719.0],[2677072.0,1129007.0],[2677275.0,1129242.0],[2677317.0,1129620.0],[2677238.0,1129852.0],[2677411.0,1130284.0],[2678188.0,1130490.0],[2678176.0,1130719.0],[2678310.0,1130843.0],[2678319.0,1131158.0],[2678683.0,1131291.0],[2678906.0,1131771.0],[2679056.0,1131891.0],[2678892.0,1132228.0],[2678973.0,1133388.0],[2678870.0,1133494.0],[2678736.0,1134054.0],[2678844.0,1134308.0],[2678959.0,1134389.0],[2678968.0,1134622.0],[2679326.0,1134911.0],[2679390.0,1135096.0],[2679250.0,1135280.0],[2679219.0,1135595.0],[2679118.0,1135734.0],[2679174.0,1135911.0],[2679053.0,1136677.0],[2679078.0,1137038.0],[2678631.0,1137768.0],[2679100.0,1138505.0],[2679413.0,1138807.0],[2678826.0,1139541.0],[2678776.0,1139793.0],[2679075.0,1140254.0],[2679170.0,1140562.0],[2678755.0,1141243.0],[2678430.0,1141413.0],[2678274.0,1141822.0],[2678309.0,1142079.0],[2678565.0,1142406.0],[2678442.0,1142588.0],[2678504.0,1142720.0],[2678308.0,1143110.0],[2678439.0,1143365.0],[2678797.0,1143610.0],[2678852.0,1143873.0],[2678966.0,1143999.0],[2678940.0,1144186.0],[2678666.0,1144268.0],[2678597.0,1144419.0],[2678675.0,1144628.0],[2678627.0,1144887.0],[2678183.0,1145132.0],[2677914.0,1145394.0],[2677872.0,1145532.0],[2677937.0,1145707.0],[2677691.0,1146113.0],[2677388.0,1146311.0],[2676869.0,1146188.0],[2676799.0,1146207.0],[2676806.0,1146374.0],[2676448.0,1146312.0],[2675951.0,1146068.0],[2675475.0,1145983.0],[2675167.0,1145738.0],[2674854.0,1145796.0],[2674500.0,1145727.0],[2674208.0,1145553.0],[2674031.0,1145277.0],[2673823.0,1145320.0],[2673549.0,1145251.0],[2673322.0,1144917.0],[2673035.0,1145046.0],[2672812.0,1144932.0],[2672689.0,1144974.0],[2672500.0,1144833.0],[2672251.0,1144818.0],[2672038.0,1144934.0],[2671963.0,1145073.0],[2671323.0,1144931.0],[2670471.0,1144370.0],[2670224.0,1143775.0],[2670097.0,1143755.0],[2669673.0,1143304.0],[2669495.0,1143218.0],[2669031.0,1142655.0],[2668630.0,1142428.0],[2668486.0,1142254.0],[2668364.0,1142266.0],[2668168.0,1141981.0],[2667365.0,1141740.0],[2666956.0,1141808.0],[2666788.0,1141981.0],[2666725.0,1141820.0],[2666505.0,1141699.0],[2666443.0,1141417.0],[2666137.0,1141038.0],[2666192.0,1140949.0],[2666117.0,1140879.0],[2666145.0,1140684.0],[2665383.0,1139993.0],[2665441.0,1139897.0],[2665697.0,1139821.0],[2665808.0,1139658.0],[2666167.0,1139642.0],[2666513.0,1139376.0],[2666749.0,1139332.0],[2666982.0,1139556.0],[2667115.0,1139258.0],[2667455.0,1138999.0],[2667581.0,1138449.0],[2667385.0,1138246.0],[2667345.0,1137982.0],[2667394.0,1137846.0],[2667675.0,1137669.0],[2667702.0,1137575.0],[2667413.0,1137329.0],[2667335.0,1137091.0],[2667407.0,1136956.0],[2667247.0,1136685.0],[2667264.0,1136563.0],[2666276.0,1136219.0],[2665936.0,1135928.0],[2665906.0,1135814.0],[2665496.0,1135662.0],[2665460.0,1135548.0],[2665162.0,1135304.0],[2665078.0,1135045.0],[2664387.0,1135232.0],[2664212.0,1135395.0],[2663500.0,1135072.0],[2663271.0,1134675.0],[2663605.0,1134304.0],[2663554.0,1134177.0],[2663676.0,1133720.0],[2663443.0,1133618.0],[2663222.0,1133361.0],[2663413.0,1133268.0],[2663452.0,1133064.0],[2663225.0,1132980.0],[2663157.0,1133104.0],[2662686.0,1133109.0],[2662549.0,1132936.0],[2662470.0,1132475.0],[2661807.0,1132338.0],[2661499.0,1132450.0],[2661345.0,1132419.0],[2660780.0,1131897.0],[2660471.0,1131753.0],[2660552.0,1131577.0],[2660476.0,1131407.0],[2660293.0,1131284.0],[2660441.0,1131147.0],[2660405.0,1130888.0],[2660563.0,1130860.0],[2660309.0,1130481.0],[2659768.0,1130102.0],[2659793.0,1129721.0],[2659513.0,1129313.0],[2659576.0,1128946.0],[2658562.0,1128155.0],[2658364.0,1128158.0],[2658229.0,1128284.0],[2657576.0,1127996.0],[2657038.0,1127600.0],[2656733.0,1127639.0],[2656741.0,1127556.0],[2655990.0,1127541.0],[2655693.0,1127420.0],[2655277.0,1127553.0],[2655001.0,1127813.0],[2654805.0,1127846.0],[2654780.0,1127938.0],[2654576.0,1128038.0],[2653849.0,1128057.0],[2653339.0,1127558.0],[2653185.0,1127272.0],[2652900.0,1127243.0],[2652571.0,1126946.0],[2652415.0,1126638.0],[2652381.0,1126293.0],[2652249.0,1126195.0],[2652019.0,1125748.0],[2651862.0,1125645.0],[2651396.0,1125577.0],[2651263.0,1125231.0],[2651019.0,1124912.0],[2650841.0,1124837.0],[2650726.0,1124636.0],[2650515.0,1124531.0],[2650437.0,1124396.0],[2649903.0,1124116.0],[2649977.0,1124005.0],[2649917.0,1123615.0],[2649784.0,1123485.0],[2649483.0,1123447.0],[2649656.0,1122993.0],[2649924.0,1122887.0],[2649939.0,1122745.0],[2650054.0,1122688.0],[2650769.0,1122556.0],[2650887.0,1122636.0],[2651105.0,1122547.0],[2651128.0,1122219.0],[2651421.0,1122289.0],[2651787.0,1122229.0],[2651931.0,1121765.0],[2651900.0,1121301.0],[2652019.0,1121034.0],[2652160.0,1120928.0],[2652199.0,1120732.0],[2652377.0,1120800.0],[2652596.0,1120738.0],[2652887.0,1120224.0],[2652895.0,1120028.0],[2653131.0,1119881.0],[2653360.0,1119856.0],[2653618.0,1119684.0],[2654025.0,1119652.0],[2654398.0,1118038.0],[2655014.0,1117068.0],[2655084.0,1116476.0],[2655017.0,1116323.0],[2655090.0,1116283.0],[2655173.0,1115767.0],[2655479.0,1115594.0],[2656125.0,1114789.0],[2656113.0,1114198.0],[2655874.0,1114109.0],[2655598.0,1113876.0],[2655382.0,1113199.0],[2655028.0,1112892.0],[2654938.0,1112585.0],[2654933.0,1111966.0],[2655197.0,1111638.0],[2655208.0,1111028.0],[2655375.0,1110936.0],[2655270.0,1110867.0],[2654969.0,1110159.0],[2654539.0,1109726.0],[2654077.0,1109613.0],[2653864.0,1109741.0],[2653057.0,1109541.0],[2652919.0,1109493.0],[2652795.0,1109252.0],[2652307.0,1108987.0],[2652242.0,1108897.0],[2652351.0,1108623.0],[2652222.0,1108296.0],[2652306.0,1108083.0],[2652186.0,1107807.0],[2652195.0,1107551.0],[2652122.0,1107412.0],[2651889.0,1107277.0],[2651893.0,1107074.0],[2651769.0,1106901.0],[2651286.0,1106764.0],[2651123.0,1106825.0],[2650915.0,1106536.0],[2650098.0,1106356.0],[2649731.0,1106197.0],[2649385.0,1106286.0],[2648758.0,1106250.0],[2648356.0,1106122.0],[2647879.0,1105806.0],[2647609.0,1105719.0],[2647208.0,1105824.0],[2646740.0,1105559.0],[2646578.0,1105643.0],[2646413.0,1105567.0],[2646098.0,1105656.0],[2646002.0,1105411.0],[2646036.0,1105034.0],[2645707.0,1104404.0],[2645766.0,1103933.0],[2645677.0,1103439.0],[2645480.0,1103275.0],[2645174.0,1102744.0],[2645215.0,1102435.0],[2645111.0,1102150.0],[2645337.0,1101949.0],[2645287.0,1101442.0],[2645390.0,1101348.0],[2645465.0,1100967.0],[2645807.0,1100325.0],[2645814.0,1100074.0],[2645940.0,1099757.0],[2646197.0,1099343.0],[2645945.0,1099112.0],[2645166.0,1098771.0],[2644703.0,1098157.0],[2644386.0,1097903.0],[2644567.0,1097780.0],[2644826.0,1097183.0],[2644456.0,1096828.0],[2644308.0,1096528.0],[2644428.0,1096439.0],[2644504.0,1096198.0],[2644442.0,1095764.0],[2643979.0,1095694.0],[2643564.0,1095785.0],[2643470.0,1095366.0],[2643194.0,1094838.0],[2643024.0,1094672.0],[2643021.0,1094409.0],[2642648.0,1093968.0],[2642402.0,1094013.0],[2641910.0,1094321.0],[2641717.0,1094353.0],[2640188.0,1093967.0],[2639970.0,1094083.0],[2639579.0,1094134.0],[2638961.0,1094109.0],[2638274.0,1093945.0],[2637881.0,1094074.0],[2637558.0,1094061.0],[2637216.0,1093929.0],[2636417.0,1094040.0],[2636058.0,1093164.0],[2635814.0,1093019.0],[2635837.0,1092788.0],[2635466.0,1092533.0],[2635280.0,1091998.0],[2635159.0,1091872.0],[2634761.0,1091775.0],[2634515.0,1091586.0],[2634423.0,1091619.0],[2634150.0,1091441.0],[2634010.0,1091460.0],[2634023.0,1091174.0],[2634331.0,1090788.0],[2634252.0,1090576.0],[2634356.0,1090367.0],[2634029.0,1090076.0],[2634051.0,1089823.0],[2633828.0,1089704.0],[2634136.0,1089284.0],[2634012.0,1089116.0],[2634003.0,1088702.0],[2633480.0,1088512.0],[2633334.0,1087327.0],[2633532.0,1087123.0],[2633572.0,1086819.0],[2633774.0,1086713.0],[2634010.0,1086273.0],[2633633.0,1085446.0],[2633184.0,1085421.0],[2633010.0,1085106.0],[2632767.0,1085229.0],[2632575.0,1085561.0],[2631972.0,1085527.0],[2631366.0,1085677.0],[2630884.0,1085648.0],[2630473.0,1086006.0],[2629615.0,1086223.0],[2629136.0,1085842.0],[2628803.0,1085784.0],[2628455.0,1085352.0],[2628000.0,1085123.0],[2627570.0,1085440.0],[2627321.0,1085989.0],[2626962.0,1086280.0],[2626212.0,1086664.0],[2626108.0,1086854.0],[2625840.0,1086984.0],[2625644.0,1087335.0],[2624698.0,1087508.0],[2623973.0,1087760.0],[2623827.0,1087078.0],[2623135.0,1086344.0],[2622970.0,1085953.0],[2622999.0,1085863.0],[2621924.0,1085821.0],[2621701.0,1085924.0],[2621542.0,1086276.0],[2621258.0,1086330.0],[2621147.0,1086850.0],[2620993.0,1086956.0],[2620921.0,1086912.0],[2620840.0,1087069.0],[2621033.0,1088537.0],[2620314.0,1089022.0],[2620174.0,1089246.0],[2619516.0,1089244.0],[2618792.0,1089520.0],[2618582.0,1089724.0],[2618482.0,1090417.0],[2618267.0,1090542.0],[2618140.0,1090889.0],[2617977.0,1090950.0],[2617798.0,1091387.0],[2617601.0,1091427.0],[2617488.0,1091590.0],[2616924.0,1091689.0],[2616772.0,1091609.0],[2616669.0,1091435.0],[2616347.0,1091407.0],[2615984.0,1091143.0],[2615572.0,1090969.0],[2614575.0,1091058.0],[2614025.0,1091217.0],[2613831.0,1091094.0],[2613664.0,1091106.0],[2613310.0,1090878.0],[2612817.0,1090995.0],[2611626.0,1091003.0],[2611229.0,1091205.0],[2611088.0,1091433.0],[2611052.0,1091564.0],[2611132.0,1091822.0],[2610846.0,1092726.0],[2610543.0,1092899.0],[2610060.0,1092914.0],[2609559.0,1092688.0],[2608639.0,1092783.0],[2608296.0,1092472.0],[2608246.0,1092083.0],[2607970.0,1091627.0],[2608114.0,1090910.0],[2608216.0,1090785.0],[2608283.0,1090234.0],[2608368.0,1090168.0],[2608267.0,1089796.0],[2608069.0,1089492.0],[2607737.0,1089268.0],[2607507.0,1089480.0],[2606926.0,1089439.0],[2606271.0,1089862.0],[2606157.0,1090127.0],[2605906.0,1090047.0],[2605694.0,1089880.0],[2605676.0,1089754.0],[2605341.0,1089601.0],[2604693.0,1090095.0],[2604444.0,1089830.0],[2604428.0,1089529.0],[2604248.0,1089347.0],[2604119.0,1089299.0],[2603784.0,1089360.0],[2603544.0,1089170.0],[2603026.0,1088966.0],[2602538.0,1088402.0],[2602763.0,1087667.0],[2602798.0,1087139.0],[2602545.0,1086934.0],[2602397.0,1086912.0],[2601994.0,1087085.0],[2601557.0,1087104.0],[2601378.0,1086758.0],[2601194.0,1086805.0],[2600638.0,1086630.0],[2600444.0,1086668.0],[2600248.0,1086429.0],[2600221.0,1086172.0],[2599843.0,1085805.0],[2599673.0,1085407.0],[2599107.0,1084872.0],[2598731.0,1084787.0],[2598625.0,1084508.0],[2598239.0,1084425.0],[2597841.0,1084115.0],[2597429.0,1084165.0],[2597137.0,1084435.0],[2596832.0,1084094.0],[2596775.0,1083685.0],[2596298.0,1083081.0],[2595939.0,1082839.0],[2595633.0,1082762.0],[2595116.0,1083241.0],[2594986.0,1083185.0],[2594367.0,1083617.0],[2593990.0,1083525.0],[2593849.0,1083785.0],[2593621.0,1083959.0],[2593622.0,1084341.0],[2593162.0,1084447.0],[2592679.0,1084853.0],[2591625.0,1084329.0],[2591095.0,1084296.0],[2590644.0,1084456.0],[2590507.0,1084999.0],[2590208.0,1084976.0],[2589764.0,1085117.0],[2589383.0,1085071.0],[2589004.0,1085507.0],[2588811.0,1085591.0],[2588558.0,1085464.0],[2588424.0,1085118.0],[2588099.0,1084909.0],[2588054.0,1084594.0],[2587713.0,1084034.0],[2587445.0,1083249.0],[2587024.0,1083165.0],[2586912.0,1082963.0],[2586646.0,1082785.0],[2586651.0,1082650.0],[2586504.0,1082464.0],[2586384.0,1082440.0],[2586050.0,1081967.0],[2585885.0,1081854.0],[2585595.0,1081894.0],[2585489.0,1082254.0],[2585316.0,1082409.0],[2585154.0,1082394.0],[2584971.0,1082197.0],[2584566.0,1082058.0],[2584248.0,1082078.0],[2583910.0,1082254.0],[2583672.0,1082287.0],[2583478.0,1082038.0],[2583262.0,1082101.0],[2582745.0,1081934.0],[2582690.0,1081386.0],[2582329.0,1081190.0],[2582237.0,1081020.0],[2581941.0,1080976.0],[2581741.0,1080555.0],[2581478.0,1080461.0],[2581284.0,1079884.0],[2581344.0,1079396.0],[2581527.0,1079079.0],[2581191.0,1078766.0],[2580733.0,1078592.0],[2580409.0,1078758.0],[2580254.0,1078744.0],[2579832.0,1079149.0],[2579548.0,1079065.0],[2578485.0,1080039.0],[2578466.0,1080117.0],[2578689.0,1080260.0],[2578685.0,1080614.0],[2578385.0,1080821.0],[2577863.0,1080889.0],[2577349.0,1080545.0],[2576871.0,1080457.0],[2576782.0,1080296.0],[2576435.0,1080163.0],[2576300.0,1079980.0],[2576332.0,1079784.0],[2576207.0,1079582.0],[2575762.0,1079196.0],[2575485.0,1079124.0],[2575129.0,1078697.0],[2574687.0,1078715.0],[2574379.0,1078560.0],[2573996.0,1078700.0],[2573784.0,1078684.0],[2573497.0,1079040.0],[2573543.0,1079189.0],[2573418.0,1079675.0],[2573219.0,1080029.0],[2573087.0,1080109.0],[2573349.0,1080530.0],[2572574.0,1081331.0],[2572162.0,1081566.0],[2572065.0,1081895.0],[2571881.0,1082141.0],[2571897.0,1082684.0],[2571710.0,1082662.0],[2571504.0,1082775.0],[2571370.0,1083003.0],[2570937.0,1083233.0],[2570963.0,1084256.0],[2570662.0,1084714.0],[2570316.0,1084806.0],[2570083.0,1084963.0],[2569656.0,1085470.0],[2569631.0,1085590.0],[2569361.0,1085807.0],[2569281.0,1086532.0],[2569162.0,1086781.0],[2568956.0,1086949.0],[2568749.0,1087494.0],[2568853.0,1087786.0],[2568826.0,1088070.0],[2568973.0,1088294.0],[2568833.0,1089094.0],[2568891.0,1089335.0],[2568695.0,1089477.0],[2567898.0,1089714.0],[2567774.0,1089686.0],[2567581.0,1089833.0],[2567538.0,1089960.0],[2567343.0,1089960.0],[2567344.0,1090068.0],[2566942.0,1090525.0],[2566811.0,1090854.0],[2566655.0,1090920.0],[2566786.0,1091387.0],[2567183.0,1091600.0],[2567666.0,1091731.0],[2567834.0,1092028.0],[2567537.0,1092391.0],[2567548.0,1092570.0],[2567425.0,1092616.0],[2567226.0,1092888.0],[2566954.0,1092945.0],[2566911.0,1093237.0],[2566981.0,1093481.0],[2566811.0,1093741.0],[2566877.0,1093840.0],[2566831.0,1094069.0],[2566433.0,1094504.0],[2566060.0,1094248.0],[2565659.0,1094378.0],[2565457.0,1094602.0],[2564856.0,1094885.0],[2564790.0,1095049.0],[2564868.0,1095213.0],[2564730.0,1095478.0],[2564750.0,1095790.0],[2564540.0,1096334.0],[2564582.0,1096551.0],[2563788.0,1097218.0],[2563444.0,1097845.0],[2563162.0,1097767.0],[2562522.0,1099020.0],[2562189.0,1100125.0],[2561708.0,1100019.0],[2561352.0,1100272.0],[2561201.0,1100544.0],[2561123.0,1100504.0],[2561024.0,1100618.0],[2561027.0,1100912.0],[2561159.0,1101055.0],[2561122.0,1101348.0],[2561265.0,1101409.0],[2561206.0,1101542.0],[2560950.0,1101734.0],[2560533.0,1101589.0],[2560221.0,1101655.0],[2559830.0,1101205.0],[2559768.0,1100995.0],[2559541.0,1100873.0],[2559411.0,1100585.0],[2559148.0,1100391.0],[2559171.0,1100197.0],[2559054.0,1100052.0],[2558575.0,1099865.0],[2557903.0,1099765.0],[2557666.0,1099503.0],[2557626.0,1099166.0],[2557387.0,1099165.0],[2557277.0,1099334.0],[2557016.0,1099361.0],[2556634.0,1099553.0],[2556428.0,1099712.0],[2556402.0,1099957.0],[2556120.0,1100117.0],[2556200.0,1100203.0],[2556214.0,1100528.0],[2556386.0,1100892.0],[2556491.0,1101418.0],[2556694.0,1101681.0],[2556796.0,1102128.0],[2557134.0,1102310.0],[2557376.0,1102565.0],[2557691.0,1102617.0],[2557412.0,1103215.0],[2557423.0,1103296.0],[2557585.0,1103382.0],[2557707.0,1103883.0],[2557467.0,1104085.0],[2557434.0,1104323.0],[2556966.0,1105003.0],[2557216.0,1105179.0],[2557393.0,1105606.0],[2557671.0,1105861.0],[2557976.0,1106440.0],[2558003.0,1106502.0],[2557857.0,1106621.0],[2557825.0,1107049.0],[2558055.0,1107458.0],[2558188.0,1107957.0],[2558359.0,1108186.0],[2558176.0,1108271.0],[2557986.0,1108184.0],[2557647.0,1108378.0],[2557005.0,1108085.0],[2556736.0,1108170.0],[2556615.0,1108348.0],[2556328.0,1108431.0],[2556008.0,1108343.0],[2554599.0,1108522.0],[2554066.0,1108715.0],[2553843.0,1108999.0],[2553889.0,1109119.0],[2553594.0,1109229.0],[2553337.0,1109136.0],[2553039.0,1109195.0],[2552083.0,1109035.0],[2551970.0,1108887.0],[2551807.0,1108834.0],[2551699.0,1108976.0],[2551715.0,1109081.0],[2551531.0,1109170.0],[2551204.0,1109645.0],[2550755.0,1109515.0],[2550490.0,1109633.0],[2550380.0,1109892.0],[2550239.0,1110883.0],[2549909.0,1111600.0],[2550098.0,1112234.0],[2550030.0,1112591.0],[2550252.0,1112910.0],[2550506.0,1113156.0],[2550657.0,1113192.0],[2550916.0,1113572.0],[2551091.0,1113655.0],[2551221.0,1114314.0],[2551659.0,1114647.0],[2551367.0,1115870.0],[2550960.0,1117069.0],[2550981.0,1117216.0],[2551270.0,1117581.0],[2551330.0,1117902.0],[2551487.0,1118038.0],[2551478.0,1118238.0],[2551757.0,1118404.0],[2551997.0,1118935.0],[2552280.0,1119089.0],[2552390.0,1119263.0],[2552417.0,1119779.0],[2552319.0,1120074.0],[2552368.0,1120285.0],[2552712.0,1120458.0],[2553099.0,1120510.0],[2553605.0,1121219.0],[2553662.0,1121673.0],[2553816.0,1122042.0],[2554058.0,1122083.0],[2554759.0,1122471.0],[2555026.0,1122810.0],[2554955.0,1123265.0],[2555403.0,1124032.0],[2555310.0,1124883.0],[2555781.0,1125582.0],[2555739.0,1125905.0],[2555455.0,1126269.0],[2555340.0,1126508.0],[2555348.0,1126709.0],[2555238.0,1126820.0],[2554975.0,1126958.0],[2554802.0,1126925.0],[2554707.0,1126711.0],[2554435.0,1126668.0],[2554280.0,1126811.0],[2554172.0,1127161.0],[2553844.0,1127253.0],[2553593.0,1127497.0],[2553473.0,1127779.0],[2553102.0,1127824.0],[2552961.0,1128083.0],[2553132.0,1128485.0],[2553038.0,1128534.0],[2552757.0,1129136.0],[2552463.0,1129249.0],[2552334.0,1129541.0],[2552017.0,1129577.0],[2551810.0,1129829.0],[2551354.0,1130124.0],[2550931.0,1129997.0],[2550840.0,1130050.0],[2550619.0,1130788.0],[2550743.0,1131055.0],[2550558.0,1131273.0],[2550546.0,1131493.0],[2549780.0,1131397.0],[2549616.0,1131479.0],[2549635.0,1131927.0],[2549318.0,1132424.0],[2549224.0,1132796.0],[2549046.0,1133014.0],[2548890.0,1133076.0],[2548691.0,1133428.0],[2548612.0,1133818.0],[2548651.0,1134633.0],[2548940.0,1134873.0],[2548969.0,1134993.0],[2549213.0,1135066.0],[2549384.0,1135240.0],[2549819.0,1135215.0],[2550281.0,1135331.0],[2550641.0,1135767.0],[2550771.0,1136077.0],[2551149.0,1136321.0],[2551291.0,1136547.0],[2551369.0,1137040.0],[2551170.0,1137129.0],[2551015.0,1137362.0],[2551022.0,1137702.0],[2551115.0,1138091.0],[2551287.0,1138283.0],[2552528.0,1141944.0],[2541858.0,1145059.0],[2529357.0,1145419.0],[2522117.0,1140999.0],[2515146.0,1139749.0],[2508750.0,1135029.0],[2506094.0,1129674.0],[2507900.0,1128701.0],[2508018.0,1128772.0],[2508062.0,1128659.0],[2508348.0,1128529.0],[2508186.0,1128322.0],[2508364.0,1128195.0],[2508261.0,1128098.0],[2508336.0,1128034.0],[2508280.0,1127931.0],[2508426.0,1127919.0],[2508300.0,1127680.0],[2508361.0,1127584.0],[2508504.0,1127563.0],[2508435.0,1127418.0],[2508581.0,1127403.0],[2508632.0,1127249.0],[2508513.0,1126988.0],[2508298.0,1126928.0],[2508311.0,1126814.0],[2508105.0,1126683.0],[2507760.0,1126663.0],[2507771.0,1126543.0],[2507611.0,1126336.0],[2507465.0,1126344.0],[2507539.0,1126047.0],[2507425.0,1125836.0],[2507536.0,1125543.0],[2507824.0,1125307.0],[2508344.0,1124115.0],[2509243.0,1123252.0],[2509121.0,1122934.0],[2509340.0,1122844.0],[2509626.0,1122483.0],[2510551.0,1122866.0],[2510538.0,1122999.0],[2511061.0,1123262.0],[2510925.0,1123384.0],[2511168.0,1123534.0],[2511421.0,1123820.0],[2511617.0,1124214.0],[2511818.0,1124329.0],[2511930.0,1124287.0],[2511950.0,1124182.0],[2511844.0,1123835.0],[2511738.0,1123768.0],[2511816.0,1123381.0],[2512358.0,1123224.0],[2512700.0,1123414.0],[2512953.0,1123383.0],[2512632.0,1122847.0],[2512918.0,1122700.0],[2512857.0,1122413.0],[2512974.0,1122021.0],[2511740.0,1119946.0],[2511320.0,1119709.0],[2510358.0,1118895.0],[2509714.0,1118682.0],[2509531.0,1118691.0],[2508583.0,1118224.0],[2508198.0,1117852.0],[2508225.0,1117757.0],[2508056.0,1117798.0],[2507859.0,1117976.0],[2507885.0,1117759.0],[2507720.0,1117710.0],[2507410.0,1117786.0],[2507233.0,1117932.0],[2507028.0,1117934.0],[2506726.0,1117721.0],[2506706.0,1117602.0],[2506542.0,1117599.0],[2506569.0,1117499.0],[2506086.0,1117309.0],[2506106.0,1117119.0],[2505803.0,1117093.0],[2505619.0,1116691.0],[2505464.0,1116562.0],[2505364.0,1116612.0],[2505270.0,1116478.0],[2505326.0,1116444.0],[2505066.0,1116448.0],[2504778.0,1116339.0],[2504751.0,1116120.0],[2504583.0,1116045.0],[2504494.0,1115784.0],[2504268.0,1115624.0],[2504197.0,1115419.0],[2503977.0,1115512.0],[2503973.0,1115423.0],[2503678.0,1115195.0],[2503470.0,1115231.0],[2503507.0,1115125.0],[2503358.0,1115094.0],[2503286.0,1114543.0],[2503466.0,1113539.0],[2503218.0,1113294.0],[2502327.0,1112603.0],[2501889.0,1112539.0],[2501014.0,1112052.0],[2500746.0,1112007.0],[2500337.0,1111777.0],[2500151.0,1111456.0],[2500223.0,1111400.0],[2500037.0,1111211.0],[2499869.0,1111315.0],[2499810.0,1111468.0],[2499776.0,1111276.0],[2499415.0,1111001.0],[2499378.0,1110848.0],[2499101.0,1110771.0],[2499042.0,1110844.0],[2498920.0,1110724.0],[2498735.0,1110718.0],[2498123.0,1110999.0],[2497363.0,1111015.0],[2497295.0,1111097.0],[2497163.0,1111033.0],[2497057.0,1111160.0],[2496803.0,1111195.0],[2496451.0,1111146.0],[2496250.0,1111644.0],[2495950.0,1112058.0],[2494639.0,1111735.0],[2494442.0,1111861.0],[2492894.0,1112044.0],[2492596.0,1111579.0],[2492517.0,1111034.0],[2492316.0,1110790.0],[2492118.0,1110954.0],[2492004.0,1110796.0],[2491869.0,1110761.0],[2491645.0,1110497.0],[2491557.0,1110177.0],[2491500.0,1110447.0],[2491410.0,1110433.0],[2491431.0,1110579.0],[2491339.0,1110579.0],[2491381.0,1110666.0],[2491259.0,1110588.0],[2491278.0,1110745.0],[2491076.0,1110746.0],[2491033.0,1110865.0],[2490685.0,1110864.0],[2490577.0,1111009.0],[2490476.0,1110950.0],[2490395.0,1111057.0],[2490000.0,1111177.0],[2489848.0,1111071.0],[2489580.0,1111075.0],[2489500.0,1111157.0],[2489087.0,1111049.0],[2488830.0,1111206.0],[2488619.0,1111177.0],[2488563.0,1111281.0],[2488425.0,1111268.0],[2488387.0,1111372.0],[2488095.0,1111237.0],[2487981.0,1111297.0],[2487834.0,1111160.0],[2487719.0,1111256.0],[2487565.0,1111212.0],[2487482.0,1111136.0],[2487432.0,1110594.0],[2487020.0,1110129.0],[2486727.0,1109964.0],[2486459.0,1110015.0],[2486123.0,1109760.0],[2485809.0,1109890.0],[2485517.0,1109645.0],[2485410.0,1110070.0],[2486116.0,1110511.0],[2486222.0,1110670.0],[2486081.0,1111146.0],[2486085.0,1111437.0],[2487350.0,1113805.0],[2487501.0,1114564.0],[2487675.0,1114621.0],[2487866.0,1114295.0],[2487973.0,1114294.0],[2488141.0,1114833.0],[2488270.0,1114963.0],[2488170.0,1115049.0],[2488526.0,1115514.0],[2488532.0,1115644.0],[2488412.0,1115761.0],[2488328.0,1116041.0],[2488182.0,1116183.0],[2487684.0,1116311.0],[2487543.0,1116442.0],[2487611.0,1116524.0],[2486150.0,1117244.0],[2486303.0,1117522.0],[2486503.0,1117572.0],[2486585.0,1117704.0],[2486911.0,1117849.0],[2486700.0,1118063.0],[2486597.0,1118306.0],[2486928.0,1119087.0],[2487384.0,1119472.0],[2488018.0,1119404.0],[2488430.0,1119227.0],[2488495.0,1119523.0],[2488243.0,1119953.0],[2488459.0,1120087.0],[2488848.0,1119988.0],[2489000.0,1119751.0],[2489117.0,1119801.0],[2489274.0,1120051.0],[2489563.0,1120175.0],[2489517.0,1120466.0],[2489632.0,1120448.0],[2489763.0,1120542.0],[2489753.0,1120734.0],[2489961.0,1120673.0],[2490044.0,1120735.0],[2490019.0,1120958.0],[2490195.0,1120887.0],[2490289.0,1121057.0],[2490446.0,1121008.0],[2490990.0,1121182.0],[2491630.0,1121763.0],[2492577.0,1120950.0],[2493351.0,1122077.0],[2493683.0,1122425.0],[2493934.0,1122528.0],[2494230.0,1122076.0],[2494404.0,1122004.0],[2494580.0,1122115.0],[2494672.0,1122020.0],[2494716.0,1122282.0],[2494871.0,1122266.0],[2494997.0,1122384.0],[2495048.0,1122334.0],[2495181.0,1122462.0],[2495412.0,1122457.0],[2495560.0,1122635.0],[2495646.0,1122516.0],[2495842.0,1122642.0],[2495875.0,1122503.0],[2496041.0,1122416.0],[2496857.0,1121571.0],[2497281.0,1121955.0],[2497430.0,1121808.0],[2498368.0,1122698.0],[2498331.0,1122753.0],[2498658.0,1123053.0],[2498659.0,1123202.0],[2498383.0,1123425.0],[2498535.0,1123628.0],[2498442.0,1123774.0],[2498522.0,1123825.0],[2498188.0,1124417.0],[2498344.0,1124547.0],[2498049.0,1124734.0],[2497988.0,1124697.0],[2497571.0,1125219.0],[2497853.0,1125435.0],[2497474.0,1125684.0],[2497371.0,1125886.0],[2497075.0,1126127.0],[2497223.0,1126602.0],[2497175.0,1126742.0],[2497019.0,1126826.0],[2497743.0,1127543.0],[2497938.0,1127897.0],[2498110.0,1127816.0],[2498366.0,1127846.0],[2498286.0,1128024.0],[2498466.0,1128143.0],[2498402.0,1128269.0],[2498541.0,1128376.0],[2498506.0,1128568.0],[2498404.0,1128586.0],[2498315.0,1128790.0],[2498413.0,1128887.0],[2498434.0,1129050.0],[2498372.0,1129098.0],[2498476.0,1129233.0],[2498357.0,1129350.0],[2498440.0,1129550.0],[2498414.0,1129874.0],[2498750.0,1130197.0],[2498762.0,1130387.0],[2498911.0,1130447.0],[2498845.0,1130616.0],[2499336.0,1131136.0],[2499527.0,1131577.0],[2499697.0,1131620.0],[2499623.0,1131656.0],[2499784.0,1131882.0],[2499715.0,1132024.0],[2499948.0,1132165.0],[2499951.0,1132318.0],[2499797.0,1132419.0],[2499886.0,1132500.0],[2499839.0,1132615.0],[2499972.0,1132647.0],[2499857.0,1132759.0],[2500336.0,1133042.0],[2500446.0,1132956.0],[2500475.0,1133075.0],[2500748.0,1133186.0],[2500949.0,1133544.0],[2500917.0,1133703.0],[2501074.0,1133676.0],[2501399.0,1133976.0],[2501468.0,1134642.0],[2501708.0,1135084.0],[2502370.0,1135759.0],[2502359.0,1135952.0],[2502070.0,1136414.0],[2501709.0,1136749.0],[2501667.0,1137173.0],[2501579.0,1137282.0],[2501510.0,1137291.0],[2501399.0,1137069.0],[2501227.0,1137171.0],[2501117.0,1137040.0],[2500832.0,1137056.0],[2499701.0,1138317.0],[2498052.0,1139594.0],[2498059.0,1139451.0],[2498184.0,1139291.0],[2498110.0,1139247.0],[2497732.0,1139556.0],[2497489.0,1139546.0],[2497069.0,1140145.0],[2497015.0,1140456.0],[2496906.0,1140501.0],[2496889.0,1140625.0],[2494591.0,1141317.0],[2494306.0,1141488.0],[2494841.0,1142494.0],[2495101.0,1142805.0],[2495160.0,1143228.0],[2496026.0,1144175.0]],[[2718578.0,1091318.0],[2718600.0,1091194.0],[2719153.0,1091173.0],[2719249.0,1091410.0],[2719273.0,1091897.0],[2719421.0,1092224.0],[2719250.0,1092322.0],[2719176.0,1092755.0],[2719232.0,1093554.0],[2718441.0,1093663.0],[2717822.0,1091501.0],[2718578.0,1091318.0]],[[2695967.0,1283210.0],[2696012.0,1283484.0],[2695542.0,1283632.0],[2695564.0,1284234.0],[2695343.0,1284498.0],[2695188.0,1285102.0],[2695113.0,1285152.0],[2695143.0,1285265.0],[2694878.0,1285656.0],[2694545.0,1285693.0],[2694463.0,1285552.0],[2693885.0,1285316.0],[2693937.0,1285065.0],[2693639.0,1284963.0],[2693452.0,1284977.0],[2693156.0,1285176.0],[2693258.0,1285384.0],[2692994.0,1285464.0],[2692723.0,1285406.0],[2692513.0,1285215.0],[2692005.0,1285470.0],[2692116.0,1284860.0],[2692688.0,1284538.0],[2692913.0,1283785.0],[2692907.0,1283726.0],[2692741.0,1283758.0],[2692704.0,1283446.0],[2692294.0,1283233.0],[2692321.0,1283109.0],[2691589.0,1283014.0],[2691590.0,1282931.0],[2691692.0,1282929.0],[2691673.0,1282809.0],[2692003.0,1282666.0],[2691959.0,1282402.0],[2692488.0,1282309.0],[2693029.0,1282573.0],[2693578.0,1283067.0],[2693811.0,1283429.0],[2693957.0,1283502.0],[2694672.0,1283238.0],[2695253.0,1282880.0],[2695795.0,1282889.0],[2696038.0,1283013.0],[2695967.0,1283210.0]]]}}